,College_Name,State,City,URL_,Address,Phone_Number
0,AA Arts and Science College - Courses,Tamil Nadu,Chennai,https://targetstudy.com/university/301/university-of-madras/,"No. 42/1, 2nd Street, Koyambedu, Srinivasa Nagar, Chennai, Tamil Nadu 600107, India","['(044) 24790445, 28553109, 28526202']"
1,Aalim Muhammed Salegh College of Engineering - AMS,Tamil Nadu,Chennai,http://www.aalimec.ac.in,"Muthapudupet, Avadi, IAF, Chennai, Tamil Nadu 600055, India","['(044) 26842627, 26842086']"
2,Accel Information Technology Academy - Aminjikarai - Courses,Tamil Nadu,Chennai,,"Chateau D Ampa, Ground Floor, 37, Nelson Manickam Road, Aminjikarai, Chennai, Tamil Nadu 600029, India","['(044) 42251234, 23745375']"
3,Agni College of Technology - ACT - Courses,Tamil Nadu,Chennai,https://targetstudy.com/university/264/anna-university-chennai/,"Old Mahabalipuram Road, Thalambur
, Chennai, Tamil Nadu 600130, India","['(044) 67409444, 67409445, 67409499 / ', ' 8122124081, 9445024081, 9361294593']"
4,Agurchand Manmull Jain College - Courses,Tamil Nadu,Chennai,http://www.amjaincollege.edu.in/,"Meenambakkam, Chennai, Tamil Nadu 600114, India","['(044) 22246705, 22248603']"
5,Alagappa Institute of Technology - AIT - Courses,Tamil Nadu,Chennai,https://targetstudy.com/university/262/alagappa-university/,"#49, Gangadeeswarar Koil Street, Purasawalkam, Chennai, Tamil Nadu 600084, India","['(044) 42174904, 45570122']"
6,Alpha Arts and Science College - AASC - Courses,Tamil Nadu,Chennai,https://targetstudy.com/university/301/university-of-madras/,"No. 30, Tundalam Road, Chettiyar Agaram Road, Behind Ramachandra Hospital, Porur, Chennai, Tamil Nadu 600116, India","['(044) 24762368 / ', ' 9884442576, 9884442578']"
7,Alpha College of Engineering - Courses,Tamil Nadu,Chennai,https://targetstudy.com/university/264/anna-university-chennai/,"#34, Udayavar Koli Street, Thirumazhisai, Poonamallee, Chennai, Tamil Nadu 600124, India",[' 7810013333']
8,Alphaa Institute of Computer Technology - Courses,Tamil Nadu,Chennai,,"#5-C/2, SIDCO Main Road, Kaviarasu Kannadasan Nagar, Kodungaiyur, (Near Kodungaiyur Police Station), Chennai, Tamil Nadu 600118, India","['(044) 25544872, 25546872 / ', ' 9841643262, 9940273126']"
9,Amaze College of Animation and Technology - Courses,Tamil Nadu,Chennai,http://www.amazemediacollege.com/,"No. 55, First Floor, Sabanayagar Street, Chidambaram, Chennai, Tamil Nadu 608001, India","['(044) 223143 / ', ' 9443229749, 9487535222']"
10,Anand Institute of Higher Technology - Courses,Tamil Nadu,Chennai,http://www.aiht.ac.in/,"Kalasalingam Nagar, IT Corridor, Old Mahabalipuram Road, Kazhipattur, Chennai, Tamil Nadu 603103, India","['(044) 27471330, 27471340, 24353370 / ', ' 9444803122, 8012136666, 8667784469']"
11,Anna University - Chennai,Universities in Tamil Nadu,Universities in Tamil Nadu,http://www.annauniv.edu,"Sardar Patel Road, Guindy, Chennai, Tamil Nadu 600025, India","['(044) 22351723, 22351126']"
12,Annai Veilankanni College for Women - Courses,Tamil Nadu,Chennai,http://annaiveilankannis.com/arts-and-science/,"#81/33 V.G.P. Salai, West Saidapet, Chennai, Tamil Nadu 600015, India","['(044) 43523712, 24851172, 24710820, 65137516']"
13,Annai Violet Arts and Science College,Tamil Nadu,Chennai,https://targetstudy.com/university/301/university-of-madras/,"No. 53, Violet College Road, Menambedu, Ambattur, Chennai, Tamil Nadu 600053, India","['(044) 26861611, 26864684 / ', ' 9884168222']"
14,Apollo Computer Education Ltd,Tamil Nadu,Chennai,http://www.apollocomputereducation.com/,"No. 4/31, Pillaiyar Koil Street, Market Bus Stop, Pallavaram, Chennai, Tamil Nadu 600017, India","['(044) 65656767, 2264 2474 / ', ' 8680004041, 8680004042']"
15,Apollo Engineering College - Courses,Tamil Nadu,Chennai,https://targetstudy.com/university/264/anna-university-chennai/,"Chettipedu, Poonamallee, Chennai, Tamil Nadu 600017, India","['(044) 24362183, 24362184, 24362185 / ', ' 9444309536, 8939633999']"
16,Apollo Priyadarshanam Institute of Technology - Courses,Tamil Nadu,Chennai,https://targetstudy.com/university/264/anna-university-chennai/,"Tambaram - Kanchipuram Main Road, Oragadam, Chennai, Tamil Nadu 600017, India","['(044) 24362183, 24362184, 24362185 / ', ' 9500000825']"
17,Appin Technology Lab,Tamil Nadu,Chennai,,"No. 10-A, 2nd Floor, First Main Road, Behind Nagathaman Koil, Chennai, Tamil Nadu 600041, India",[' 9962006587']
18,Arignar Anna Institute of Management Studies and Computer Applications - AAIMSCA - Courses,Tamil Nadu,Chennai,https://targetstudy.com/university/301/university-of-madras/,"Pennalur, Sriperumbudur, Chennai, Tamil Nadu 602105, India","['(044) 23770676, 23775964']"
19,Arignar Anna Institute of Science and Technology - AAIST - Courses,Tamil Nadu,Chennai,http://www.arignaranna.org/,"Pennalur, G. Jayarama Nagar, Sriperumpudur Taluk, Chennai, Tamil Nadu 602105, India","['(044) 27162344 / 100, Toll Free - 18001039949 / ', ' 9094099901 to 903, 9094999909 to 910']"
20,Asan Institute of Management - AIM - Courses,Tamil Nadu,Chennai,http://asaneducation.com/AIM/index.html,"1/176, Bharathiar Salai, Velachery - Tambaram Road, Jaladampet, Chennai, Tamil Nadu 600100, India","['(044) 22461418, 22460216, 22460032']"
21,Asan Memorial College of Arts and Science - AMCAS - Courses,Tamil Nadu,Chennai,http://www.amcas.in/,"1/176, Bharathiar Salai, Velachery-Tambaram Road, Jaladampet, Chennai, Tamil Nadu 600100, India","['(044) 22461418, 22460216, 22460032 / ', ' 9176316656']"
22,Avichi College of Art and Science - Courses,Tamil Nadu,Chennai,https://targetstudy.com/university/301/university-of-madras/,"No. 130-A, Arcot Road, Virugambakkam, Chennai, Tamil Nadu 600092, India","['(044) 23764227 / ', ' 9600164070, 7338882812']"
23,B.S. Abdur Rahman Crescent Engineering College - Courses,Tamil Nadu,Chennai,https://crescent.education/,"Seethakathi Estate, GST Road, Vandalur, Chennai, Tamil Nadu 600048, India","['(044) 22751347, 22751348, 22751350, 22751375 / ', ' 9543277888, 9499001725 (Admission Help No.']"
24,Balaji Institute of Engineering and Technology - BIET,Tamil Nadu,Chennai,https://targetstudy.com/university/264/anna-university-chennai/,"Thandalam Village, Office IT Highway, Near Thiruporur, Chennai, Tamil Nadu 603110, India","['(044) 27445043, 27445040 / ', ' 9176043317']"
25,Bhaktavatsalam Memorial College for Women - Courses,Tamil Nadu,Chennai,https://targetstudy.com/university/301/university-of-madras/,"No. 14, 31st Street, Periyar Nagar Korattur, Chennai, Tamil Nadu 600080, India",['(044) 26872891']
26,Bharath Institute of Higher Education and Research - BIHER,Universities in Tamil Nadu,Universities in Tamil Nadu,https://www.bharathuniv.ac.in/,"#173 Agharam Road, Selaiyur, Chennai, Tamil Nadu 600073, India","['(044) 22290742, 22290125']"
27,Bharath Post Graduate College - Courses,Tamil Nadu,Chennai,https://targetstudy.com/university/149/karnataka-state-open-university/,"8, Karpagambal Nagar, Mylapore, Chennai, Tamil Nadu 600004, India","['(044) 24984366, 24990953, 24987025 / ', ' 7397326110, 7299049155, 7299049157, 7299049154']"
28,BS Abdur Rahman Crescent Institute of Science and Technology,Universities in Tamil Nadu,Universities in Tamil Nadu,http://www.bsauniv.ac.in,"GST Road, Vandalur, Chennai, Tamil Nadu 600048, India","['(044) 22751347, 22751348, 22751350, 22751375 / ', ' Admission Helpline No. 9543277888']"
29,Centre for Development of Advanced Computingc- C-DAC Chennai - Courses,Tamil Nadu,Chennai,http://www.cdac.in/,"Tidel Park, 8th Floor, 'D' Block (North & South), No. 4, Rajiv Gandhi Salai, Taramani, Chennai, Tamil Nadu 600113, India","['(044) 22542226, 22542227']"
30,Chennai Institute of Technology - CIT,Tamil Nadu,Chennai,https://targetstudy.com/university/264/anna-university-chennai/,"Sarathy Nagar, Nandhambakkam (Post), Kundrathur, Chennai, Tamil Nadu 600069, India",[' 9176660011']
31,Chevalier T.Thomas Elizabeth College for Women - Courses,Tamil Nadu,Chennai,https://targetstudy.com/university/301/university-of-madras/,"No. 16, St. Maryâ€™s Road, Maryland, Sembium, Perambur, Chennai, Tamil Nadu 600011, India","['(044) 25375753, 25370029']"
32,CM Kothari Technological Institute - Courses,Tamil Nadu,Chennai,,"Chembarambakkam, Nazarethpettai, Thirumazhisai
, Chennai, Tamil Nadu 602103, India","['(044) 26272411, 26491834']"
33,Dhaanish Ahmed College of Engineering - Courses,Tamil Nadu,Chennai,https://targetstudy.com/university/264/anna-university-chennai/,"Dhaanish Nagar, Vanchuvancherry, Padappai, (Near Tambaram), Chennai, Tamil Nadu 601301, India","[' 9962022222, 9840720640']"
34,Dhanalakshmi College of Engineering - Courses,Tamil Nadu,Chennai,https://targetstudy.com/university/264/anna-university-chennai/,"Dr. V.P.R. Nagar, Off. Tambaram Sriperumbudur Road (Via Manimangalam) Manimangalam Post, Chennai, Tamil Nadu 601301, India","['(044) 71700801, 71700808 / ', ' 7299996789, 9941924411, 7299016647']"
35,Dhanalakshmi Srinivasan College of Engineering and Technology - Courses,Tamil Nadu,Chennai,http://dscet.ac.in/,"East Coast Road, Mamallapuram, Chennai, Tamil Nadu 603104, India","['(044) 27442844, 27443844']"
36,Dhanraj Baid Jain College (Autonomous) - Courses,Tamil Nadu,Chennai,http://dbjaincollege.org/,"Rajiv Gandhi Salai, Jyothi Nagar, Thoraipakkam, Chennai, Tamil Nadu 600097, India","[' 7200071798, 6374183720, 7200071797']"
37,Dharmamurthi Rao Bahadur Calavala Cunnan Chetty's Hindu College - DRBCCC - Courses,Tamil Nadu,Chennai,https://targetstudy.com/university/301/university-of-madras/,"Dharmamurthi Nagar, Pattabiram, Chennai, Tamil Nadu 600072, India","['(044) 26850621, 26850887 / ', ' 7397387413']"
38,Diamond Dart Academy - DDA - Courses,Tamil Nadu,Chennai,,"Head Office:- #73, Old #43/44, NU-Tech Plaza, Aarcot Road, Kodambakkam, Chennai, Tamil Nadu 600024, India",['(044) 42280617']
39,DMI College of Engineering - DMICE - Courses,Tamil Nadu,Chennai,https://targetstudy.com/university/264/anna-university-chennai/,"Palanchur - Nazarethpet Post, Chennai, Tamil Nadu 602103, India","['(044) 26810641, 26811544']"
40,Dr. MGR Educational and Research Institute,Universities in Tamil Nadu,Universities in Tamil Nadu,http://www.drmgrdu.ac.in/,"Periyar E.V.R. High Road, (NH-4 Highway), Maduravoyal, Chennai, Tamil Nadu 600095, India","['(044) 23782176, 23782186, 23782085']"
41,Dr. MGR Janaki College of Arts and Science for Women - Courses,Tamil Nadu,Chennai,https://www.mgrjanaki.ac.in/,"""Sathyabama MGR Maligai"", 11 & 13, Durgabai Deshmuk Road, Raja Annamalai Puram, Chennai, Tamil Nadu 600028, India",['(044) 24937382']
42,Dreamzone School of Creative Studies - Courses,Tamil Nadu,Chennai,http://www.dreamzone.co.in/,"36012, Bye Pass Road, Velachery, Chennai, Tamil Nadu 600042, India","['(044) 64502424, 24987660 / ', ' 9840150004, 7299735551']"
43,Dwaraka Doss Goverdhan Doss Vaishnav College (Autonomous) - Courses,Tamil Nadu,Chennai,https://targetstudy.com/university/301/university-of-madras/,"#833, E.V.R. Periyar Highroad, Arumbakkam, Chennai, Tamil Nadu 600106, India",['(044) 23635101']
44,Easwari Engineering College - EEC - Courses,Tamil Nadu,Chennai,https://targetstudy.com/university/264/anna-university-chennai/,"Bharathi Salai, Ramapuram, Chennai, Tamil Nadu 600089, India","['(044) 43923041, (Toll Free Number No. 1800-103-2535) / ', ' 8939628204']"
45,EDIT - Educators in Design and Internet Technology - Thoraipakam,Tamil Nadu,Chennai,,"Kidzee Pre School, No. 4, First Street, Sowdeeswari Nagar, Okiyam Thoraipakam, Chennai, Tamil Nadu 600096, India",[' 8433935124']
46,Ethiraj College for Women (Autonomous) - Courses,Tamil Nadu,Chennai,https://targetstudy.com/university/301/university-of-madras/,"70, Ethiraj Salai, Egmore, Thousand Lights, Chennai, Tamil Nadu 600008, India",['(044) 28279189']
47,G-Tec Computer Education,Tamil Nadu,Chennai,,"Chennai, Chennai, Tamil Nadu , India","[' 9840143933, 9841987456']"
48,GKM College of Engineering and Technology - Courses,Tamil Nadu,Chennai,http://www.gkmcet.net.in,"Near Tambaram, G.K.M. Nagar, Perungalathur, Chennai, Tamil Nadu 600063, India","['(044) 22794023, 22794073, 22792401']"
49,Gojan School of Business and Technology - GSBT - Courses,Tamil Nadu,Chennai,http://www.gojaneducation.com,"80 Feet Road, Edapalayam, Redhills, Chennai, Tamil Nadu 600052, India","['(044) 26311045, 26311001, 26311025, 26311026 / ', ' 9176378086, 7010723984']"
50,Gopal Ramalingam Memorial Engineering College - Courses,Tamil Nadu,Chennai,https://targetstudy.com/university/264/anna-university-chennai/,"No. 27, Duraisamy Reddy Street West Tambaram, Chennai, Tamil Nadu 600045, India","['(044) 42044337, 65392338 / ', ' 9444864288']"
51,Government Arts College for Men (Autonomous) - Courses,Tamil Nadu,Chennai,http://gacnandanam.com/,"No. 329, Anna Salai, Nandanam, Chennai, Tamil Nadu 600035, India",['(044) 24351048']
52,Guru Nanak College - Courses,Tamil Nadu,Chennai,https://gurunanakcollege.edu.in/,"161, Guru Nanak Salai, Velachery, Chennai, Tamil Nadu 600042, India","['(044) 22451746, 22444621']"
53,Guru Shree Shantivijal Jain College for Women - Courses,Tamil Nadu,Chennai,https://targetstudy.com/university/301/university-of-madras/,"96, Vepery High Road, Chennai, Tamil Nadu 600007, India",['(044) 25322257']
54,Hindustan College of Arts and Science - Courses,Tamil Nadu,Chennai,http://www.hcaschennai.edu.in/,"Padur, Kelambakkam(OMR), Rajiv Gandhi Salai
, Chennai, Tamil Nadu 603103, India","['(044) 69034444, 27474671, 27475249 / ', ' 9962275666']"
55,Hindustan Institute of Technology and Science - HITS,Universities in Tamil Nadu,Universities in Tamil Nadu,http://www.hindustanuniv.ac.in,"P.O. Box No. 1, Rajiv Gandhi Salai (OMR), Padur, (Via) Kelambakkam, Chennai, Tamil Nadu 603103, India","['(044) 27474262, Toll Free No. 1800-425-44 38']"
56,IIKM Business School - Courses,Tamil Nadu,Chennai,https://targetstudy.com/university/271/bharathiar-university/,"857 Poonamallee High Road, Kilpauk, Chennai, Tamil Nadu 600010, India","['(044) 48600030, 26413466, 26411455 / ', ' 9500009914, 9500009915, 9500009916']"
57,Indian Institute of Knowledge Management - IIKM - Courses,Tamil Nadu,Chennai,http://www.iikm.net,"#91, Valluvar Kottam High Road, Nungambakkam, Chennai, Tamil Nadu 600034, India","['(044) 28214342, 28214343 / ', ' 9445232862, 9962172650']"
58,Indian Institute of Technology - IIT Madras,Universities in Tamil Nadu,Universities in Tamil Nadu,http://www.iitm.ac.in,"Sardar Patel Road, Adyar, Chennai, Tamil Nadu 600036, India","['(044) 22578100, 22578101']"
59,Indian School of Business Management and Administration - ISBM Chennai - Courses,Tamil Nadu,Chennai,http://www.isbm.org.in,"211, 3rd Floor, Sivamegam Towers, Above Jackson's Furniture, Opposite to Valluvar Kottam, Valluvar High Road, Nungambakkam, Chennai, Tamil Nadu 600034, India","['(044) 30216500 / ', ' 8928111111']"
60,International Maritime Academy - IMA - Courses,Tamil Nadu,Chennai,https://imamaritime.com/,"No. 41, Jamin Korattur, Pudhuchatram, (From Poonamallee to Tirupathi Highway Road), Chennai, Tamil Nadu 600017, India","['(044) 3502120, 43502320, 43502520 / ', ' 8939902280, 76080636, 8939707240']"
61,International School of Business and Research - ISBR - Courses,Tamil Nadu,Chennai,https://targetstudy.com/university/144/manipal-university/,"Greeta Tech Park, No. 96, VSI Functional Estate, Perungudi, Opposite to Areva and Behind Maruti Suzuki Showroom, Chennai, Tamil Nadu 600096, India","[' 9444334755, 9380944610']"
62,Jaya College of Arts and Science - Courses,Tamil Nadu,Chennai,https://targetstudy.com/university/301/university-of-madras/,"CTH Road, Thiruninravur, Chennai, Tamil Nadu 602024, India",['(044) 26340953']
63,Jaya Engineering College - Courses,Tamil Nadu,Chennai,https://targetstudy.com/university/264/anna-university-chennai/,"C.T.H. Road, Prakash Nagar Tiruninravur, Chennai, Tamil Nadu 602024, India","['(044) 26300982, 26341264, 26390041 / ', ' 8531077777']"
64,Jayagovind Harigopal Agarwal Agarsen College - Courses,Tamil Nadu,Chennai,https://targetstudy.com/university/301/university-of-madras/,"Madhavaram, Chennai, Tamil Nadu 600060, India","['(044) 25559002, 25559003 / ', ' 9445076258']"
65,Jeppiaar Engineering College - Courses,Tamil Nadu,Chennai,https://targetstudy.com/university/264/anna-university-chennai/,"Old Mamallapuram Road, Rajiv Gandhi Salai, Semmenchery Village, Sholinganallur, Chennai, Tamil Nadu 600119, India",['(044) 24502818']
66,Jeppiaar SRR Engineering College - Courses,Tamil Nadu,Chennai,https://targetstudy.com/university/264/anna-university-chennai/,"Ram Nagar, IT High Way, Padur, Chennai, Tamil Nadu 603103, India","['(044) 47486331, 27416131, 27416132, 27416133']"
67,Jerusalem College of Engineering - Courses,Tamil Nadu,Chennai,http://www.jerusalemengg.ac.in,"Velachery Main Road, Narayanapuram, Pallikaranai, Chennai, Tamil Nadu 600100, India","['(044) 22461404, 22460131']"
68,Justice Basheer Ahmed Sayeed College for Women (Autonomous) - Courses,Tamil Nadu,Chennai,https://www.jbascollege.edu.in/,"#56, K.B. Dasan Road, Teynampet, Chennai, Tamil Nadu 600018, India","['(044) 24364152, 24364140']"
69,KCG College of Technology - Courses,Tamil Nadu,Chennai,http://www.kcgcollege.com,"KCG Nagar, Rajiv Gandhi Salai, Karapakkam, Chennai, Tamil Nadu 600097, India","['(044) 24503140, 24503232, 24501255']"
70,KCS Kasi Nadar College of Arts and Science - Courses,Tamil Nadu,Chennai,http://kcskasinadarcollege.in,"(Belongs to SVHNA Dharma Fund), #96, Ellaya Street, Radhakrishnan Nagar, Chennai, Tamil Nadu 600021, India","['(044) 25974499, 25974498']"
71,Kings Engineering College,Tamil Nadu,Chennai,http://www.kingsedu.ac.in/,"Opposite to Hyundai Motors, Chennai - Bangalore Highway, Irungattukottai Village, Sriperumbudur Taluk, Chennai, Tamil Nadu 602117, India","['(044) 71224400, 71224402 (Principal), 71224404']"
72,Kumararani Meena Muthiah College of Arts And Science - Courses,Tamil Nadu,Chennai,https://targetstudy.com/university/301/university-of-madras/,"No. 4, Crescent Avenue Road, Gandhi Nagar, Adyar, Chennai, Tamil Nadu 600020, India",['(044) 24450923']
73,Loyola College - Courses,Tamil Nadu,Chennai,http://www.loyolacollege.edu,"Sterling Road, Nungambakkam, Chennai, Tamil Nadu 600034, India","['(044) 28178200 / ', ' 9344527381']"
74,Loyola Institute of Technology,Tamil Nadu,Chennai,http://www.litedu.in/,"Mevalur Kuppam B Village, Palanchur, Nazerathpet Post, Chennai, Tamil Nadu 602103, India","['(044) 26811541, 26810252 / ', ' 9444390711']"
75,Loyola-ICAM College of Engineering and Technology - LICET - Courses,Tamil Nadu,Chennai,https://targetstudy.com/university/264/anna-university-chennai/,"Loyola College Campus, Nungambakkam, Chennai, Tamil Nadu 600034, India","['(044) 28178490, 28178492']"
76,M.O.P. Vaishnav College for Women (Autonomous) - Courses,Tamil Nadu,Chennai,http://mopvc.edu.in/,"20, IV Lane, Nungambakkam High Road, Chennai, Tamil Nadu 600034, India","['(044) 28330262, 28330507']"
77,Madha Engineering College - Courses,Tamil Nadu,Chennai,https://targetstudy.com/university/264/anna-university-chennai/,"Madha Nagar, Kundrathur, Chennai, Tamil Nadu 600069, India","['(044) 24780732, 24780734']"
78,Madha Institute of Engineering and Technology - Courses,Tamil Nadu,Chennai,https://targetstudy.com/university/264/anna-university-chennai/,"Behind Anagaputhur Bus stand, Near Pallavaram, Chennai, Tamil Nadu 600122, India","['(044) 29301103 / ', ' 8181816735, 8072646553']"
79,Madha Institute of Management and Computer Science - Courses,Tamil Nadu,Chennai,,"Madha Nagar, Somangalam Road, Kundrathur, Chennai, Tamil Nadu 600069, India","['(044) 24780732, 24780734']"
80,Madras Christian College (Autonomous) - Courses,Tamil Nadu,Chennai,https://targetstudy.com/university/301/university-of-madras/,"Tambaram, Chennai, Tamil Nadu 600059, India","['(044) 22390675, 22396772']"
81,Madras Computer Academy,Tamil Nadu,Chennai,,"78, Usman Road, (2nd Floor), T. Nagar, Chennai, Tamil Nadu 600017, India","['(044) 24334450, 24344430']"
82,Madras Institute of Technology - Courses,Tamil Nadu,Chennai,https://targetstudy.com/university/264/anna-university-chennai/,"MIT Campus, Anna University, Chromepet, Chennai, Tamil Nadu 600044, India","['(044) 22232403, 22235046']"
83,Magna College of Engineering - Courses,Tamil Nadu,Chennai,https://targetstudy.com/university/264/anna-university-chennai/,"Redhills -Tiruvallur High Road, Magaral, Chennai, Tamil Nadu 600055, India","['(044) 27626301, 27626302, 27626303, 27626304 / ', ' 9940629736']"
84,Mahalashmi Womens College of Arts and Science - Courses,Tamil Nadu,Chennai,https://targetstudy.com/university/301/university-of-madras/,"Mahalashmi Nagar, Avadi, Poonamallee Road, Paruthipattu, Chennai, Tamil Nadu 600071, India","['(044) 26801313, 26801315 / ', ' 9677041315']"
85,MEASI Institute of Information Technology - Courses,Tamil Nadu,Chennai,https://measiit.edu.in/,"#87, Peters Road, Royapettah, Chennai, Tamil Nadu 600014, India","['(044) 28350684, 28352374, 65275157']"
86,Meenakshi College for Women - Courses,Tamil Nadu,Chennai,http://www.meenakshicollege.com,"#363, Arcot Road, Kodambakkam, Chennai, Tamil Nadu 600024, India",['(044) 24725466']
87,Meenakshi College of Engineering - Courses,Tamil Nadu,Chennai,http://www.mce.edu.in/contact_us.php,"No. 12, Vembuliamman Koil Street, West K.K. Nagar, Chennai, Tamil Nadu 600092, India","['(044) 23642728 / ', ' 6369834428, 9025307975']"
88,Meenakshi Sundararajan Engineering College - Courses,Tamil Nadu,Chennai,https://targetstudy.com/university/264/anna-university-chennai/,"#363, Arcot Road, Kodambakkam, Chennai, Tamil Nadu 600024, India",['(044) 24801636']
89,Misrimal Navajee Munoth Jain Engineering College - Courses,Tamil Nadu,Chennai,http://www.mnmjec.ac.in/,"Guru Marudhar Kesari Building, Jyothi Nagar, Thorapakkam, Chennai, Tamil Nadu 600097, India","['(044) 24962270, 24962271, 24962272']"
90,Mohamed Sathak A.J. College of Engineering - Courses,Tamil Nadu,Chennai,https://targetstudy.com/university/264/anna-university-chennai/,"34, Rajiv Gandhi Salai (OMR), Siruseri IT Park, Siruseri, Chennai, Tamil Nadu 603103, India",[' 9940004500']
91,Mohamed Sathak College of Arts and Science - Courses,Tamil Nadu,Chennai,http://www.mscartsandscience-edu.in,"No. 13, Medavakkam Road, Chennai, Tamil Nadu 600119, India","['(044) 24501578, 24501054, 24501115, 24502576']"
92,National Institute of Electronics and Information Technology - NIELIT - Courses,Tamil Nadu,Chennai,http://nielit.gov.in/chennai/,"ISTE Complex, No. 25, Gandhi Mandapam Road, Chennai, Tamil Nadu 600025, India","['(044) 24421445, 24421446']"
93,National Institute of Technical Teachers Training and Research - NITTTR - Courses,Tamil Nadu,Chennai,http://www.nitttrc.ac.in/,"Taramani, Chennai, Tamil Nadu 600113, India","['(044) 22545401, 22545406, 22545442, 22541982']"
94,New Prince Shri Bhavani Arts and Science College - Courses,Tamil Nadu,Chennai,https://targetstudy.com/university/301/university-of-madras/,"Patel Road, Medavakkam, Chennai, Tamil Nadu 600100, India",['(044) 22771098']
95,New Prince Shri Bhavani College of Engineering and Technology - Courses,Tamil Nadu,Chennai,https://targetstudy.com/university/264/anna-university-chennai/,"Tambaram - Velachery Main Road, Santhosapuram, Chennai, Tamil Nadu 600073, India","['(044) 22780404 / ', ' 9152666444, 9152666333']"
96,Nishtha Institute of Training and Education,Tamil Nadu,Chennai,http://www.nishthatraining.com,"Nishtha Technologies, 3rd Floor, 2nd Wing, Nelson Towers, 51, Nelson Manickam Road, Chennai, Tamil Nadu 600029, India","['(044) 28344252 / ', ' 9677077906, 9677077910']"
97,P.M.R. Institute of Technology - Courses,Tamil Nadu,Chennai,,"Adayalampattu, Chennai, Tamil Nadu 600095, India","['(044) 26532579, 26532581']"
98,Pachaiyappa's College - Courses,Tamil Nadu,Chennai,https://pachaiyappascollege.edu.in/,"E.V.R. Periyar High Road, Shenoy Nagar, Chennai, Tamil Nadu 631501, India",['(044) 42146843']
99,Panimalar Institute of Management Studies and Commerce - Courses,Tamil Nadu,Chennai,https://targetstudy.com/university/301/university-of-madras/,"Bangalore Trunk Road Varadharajapuram, Nasarathpet, Poonamallee, Chennai, Tamil Nadu 602103, India","['(044) 26490404, 26490505, 26490717']"
100,Patrician College of Arts and Science - Courses,Tamil Nadu,Chennai,https://targetstudy.com/university/301/university-of-madras/,"Canal Bank Road, Gandhi Nagar, Opposite to Kotturpuram Railway Station, Adyar, Chennai, Tamil Nadu 600020, India","['(044) 24401362, 24426913 / ', ' 9342465500, 9159143990']"
101,PMR Institute of Technology - Courses,Tamil Nadu,Chennai,https://targetstudy.com/university/264/anna-university-chennai/,"(Near Ambattur, Muggapair West), Adayalampattu, Chennai, Tamil Nadu 600095, India","['(044) 65310510, 65128015, 65128012 / ', ' 9444902280']"
102,Presidency College (Autonomous) - Courses,Tamil Nadu,Chennai,https://targetstudy.com/university/301/university-of-madras/,"#100, Kamarajar Salai, Chepauk, Chennai, Tamil Nadu 600005, India","['(044) 28544894, 28586401']"
103,Prince Dr. K. Vasudevan College of Engineering and Technology - Courses,Tamil Nadu,Chennai,https://targetstudy.com/university/264/anna-university-chennai/,"Medavakkam - Mambakkam Road, Ponmar, Chennai, Tamil Nadu 600127, India","['(044) 24991414 / ', ' 9840100040, 9047040412, 9047040413']"
104,Prince Shri Venkateshwara Arts and Science College,Tamil Nadu,Chennai,https://targetstudy.com/university/301/university-of-madras/,"No. 29, Vembuliamman Koil Street, Gowrivakkam, Chennai, Tamil Nadu 600048, India",['(044) 22780755']
105,Prince Shri Venkateshwara Padmavathy Engineering College - Courses,Tamil Nadu,Chennai,https://targetstudy.com/university/264/anna-university-chennai/,"Medavakkam- Mambakkam Road, Ponmar, Chennai, Tamil Nadu 600127, India","[' 9047040412, 9047040413, 96770292']"
106,Quaid-e-Millath Government College for Women (Autonomous) - Courses,Tamil Nadu,Chennai,http://qmgcw.edu.in/,"74, Binny Road, Anna Salai, Chennai, Tamil Nadu 600002, India","['(044) 29515068, 29515071']"
107,R.B. Gothi Jain College for Women - Courses,Tamil Nadu,Chennai,https://targetstudy.com/university/301/university-of-madras/,"No. 13, Sothupakkam Darkash Road, Pulliline Redhills, Chennai, Tamil Nadu 600052, India","['(044) 26322022, 64502022, 64503033 / ', ' 9940629851, 9952955552']"
108,Raja Rajeswari Engineering College - Courses,Tamil Nadu,Chennai,https://targetstudy.com/university/264/anna-university-chennai/,"Adayalampattu, Vangaram Post, Ambattur Taluk, Chennai, Tamil Nadu 600095, India","['(044) 26534011, 26534012, 55919118, 26568888']"
109,Rajalakshmi Engineering College - REC - Courses,Tamil Nadu,Chennai,http://www.rajalakshmi.org/,"Rajalakshmi Nagar, Thandalam, Chennai, Tamil Nadu 602105, India","['(044) 67181111, 67181112 / ', ' 9025671066, 9052671077']"
110,Rajalakshmi Institute of Technology - RIT - Courses,Tamil Nadu,Chennai,http://www.ritchennai.org,"Poonamallee, Chennai, Tamil Nadu 600124, India","['(044) 67181600, 67181601']"
111,Rajalaxmi Engineering College - Courses,Tamil Nadu,Chennai,https://targetstudy.com/university/264/anna-university-chennai/,"Rajalakshmi Nagar, Thandalam, Chennai, Tamil Nadu 602105, India","['(044) 67181111, 67181112']"
112,Rajarajan Academy - Courses,Tamil Nadu,Chennai,,"No. 73, Karuneegar Steet, Adambakkam, Chennai, Tamil Nadu 600088, India","['(044) 22550001 / ', ' 9094125439, 9841043517, 9841093932, 9841224680']"
113,Ramakrishna Mission Vivekananda Day College (Autonomous) - Courses,Tamil Nadu,Chennai,http://www.rkmvc.ac.in/,"#70-72, P.S. Sivaswami Salai, Mylapore, Chennai, Tamil Nadu 600004, India",['(044) 24993057']
114,S.A. Engineering College - Courses,Tamil Nadu,Chennai,https://www.saec.ac.in/,"Poonamallee - Avadi Road, Veeraraghavapuram, Thiruverkadu, Chennai, Tamil Nadu 600077, India","['(044) 26801999, 26801499']"
115,Sakthi Engineering College - Courses,Tamil Nadu,Chennai,http://www.sakthiec.edu.in/,"CTH Road, St. Marys Nagar, (Near Avadi), Thiruninravur, Chennai, Tamil Nadu 602024, India","['(044) 26340250, 26344282']"
116,Sakthi Mariamman Engineering College - SMEC - Courses,Tamil Nadu,Chennai,https://targetstudy.com/university/264/anna-university-chennai/,"Narayanasamy Nagar 55, Thandalam, Chennai, Tamil Nadu 602105, India","['(044) 27156742, 27156801 / ', ' 9244900701, 9244900710, 9566223399']"
117,SAMS College of Engineering and Technology - Courses,Tamil Nadu,Chennai,https://targetstudy.com/university/264/anna-university-chennai/,"#82, Panapakkam, Near Periyapalayam, Chennai - Thirupathy Road, Chennai, Tamil Nadu 601102, India","['(044) 27629596, 27629597']"
118,Sarvha Satya - Software Solutions Training,Tamil Nadu,Chennai,http://www.sarvhasatya.com,"111-A, Thiruvalluvar Salai, Opposite to Adyar Bakery, Thiruvanmiyur, Chennai, Tamil Nadu 600041, India","['(044) 24455038 / ', ' 9566066559']"
119,Sathyabama Institute of Science and Technology,Universities in Tamil Nadu,Universities in Tamil Nadu,http://www.sathyabamauniversity.ac.in,"Jeppiaar Nagar, Rajiv Gandhi Road, Chennai, Tamil Nadu 600119, India","['(044) 24502436, 24500600 / ', ' 9940058263, 9940069538']"
120,Saveetha Engineering College - Courses,Tamil Nadu,Chennai,https://www.saveetha.ac.in/,"Saveetha Nagar, Thandalam, Chennai, Tamil Nadu 602105, India","['(044) 66726677, 66726672']"
121,Saveetha Institute of Medical and Technical Sciences,Universities in Tamil Nadu,Universities in Tamil Nadu,,"#162, Poonamallee High Road, Chennai, Tamil Nadu 600077, India","['(044) 26801050, 26801580 / ', ' 8939994248']"
122,Shree Motilal Kanhaiyalal Fomra Institute of Technology - Courses,Tamil Nadu,Chennai,https://targetstudy.com/university/264/anna-university-chennai/,"Rajiv Gandhi Salai, IT Highway (OMR), Near Kelambakkam, Chennai, Tamil Nadu 603103, India","['(044) 2023640, 32869300']"
123,Shri Andal Alagar College of Engineering - SAACE - Courses,Tamil Nadu,Chennai,https://targetstudy.com/university/264/anna-university-chennai/,"No. 6, GST Road, Mamandur, Chennai, Tamil Nadu 603111, India","['(044) 27565662, 27565663, 27565227, 27565228']"
124,Shri Krishnaswamy College for Women - Courses,Tamil Nadu,Chennai,http://www.shrikrishnaswamycollegeforwomen.com/,"AC-48, 6th Main Road, Shanthi Colony, Anna Nagar West, Chennai, Tamil Nadu 600040, India","['(044) 26262977, 26282977 / ', ' 7358383434']"
125,Shri Shankarlal Sundarbai Shasun Jain College for Women - Courses,Tamil Nadu,Chennai,https://targetstudy.com/university/301/university-of-madras/,"No. 3, Madley Road, T. Nagar, (Near T. Nagar Bus Stand), Chennai, Tamil Nadu 600017, India","['(044) 24328506, 24328507, 24328508 / ', ' 7305151442, 7305471442, 7305223442, 7358281442']"
126,Shrimathi Devkunvar Nanalal Bhatt Vaishnav College for Women (Autonomous) - Courses,Tamil Nadu,Chennai,https://targetstudy.com/university/301/university-of-madras/,"Shanthi Nagar, Chromepet, Chennai, Tamil Nadu 600044, India","['(044) 22655450, 22654976']"
127,Sir Theagaraya College - Courses,Tamil Nadu,Chennai,http://www.sirtheagarayacollege.com/,"1047/345, T.H., Old Washermanpet
, Chennai, Tamil Nadu 600021, India",['(044) 25951300']
128,SIVET College - Courses,Tamil Nadu,Chennai,http://www.sivetcollege.com,"Velachery Main Road, Gowrivakkam, Tambaram, Chennai, Tamil Nadu 600073, India","['(044) 22780777, 22780037']"
129,SKR Engineering College - Courses,Tamil Nadu,Chennai,https://targetstudy.com/university/264/anna-university-chennai/,"Nazarathpet, (1.5 Kms from Poonamallee), Poonamallee, Chennai, Tamil Nadu 600123, India","['(044) 26494205, 26273380 / ', ' 9840666144']"
130,SLA IT Institute,Tamil Nadu,Chennai,http://www.slajobs.com/,"No. 10, P.T. Rajan Salai, K.K. Nagar, Landmark: Shivan Park/Karnataka Bank Building, Chennai, Tamil Nadu 600078, India","[' 8608700340, 8148400908']"
131,Soka Ikeda College of Arts and Science for Women - Courses,Tamil Nadu,Chennai,https://targetstudy.com/university/301/university-of-madras/,"Sethu Bhaskara Nagar, Madhanangkuppam, Chennai, Tamil Nadu 600099, India","['(044) 26863177 / ', ' 9677717455, 9677717456']"
132,Sree Muthukumaraswamy College - Courses,Tamil Nadu,Chennai,https://targetstudy.com/university/301/university-of-madras/,"92/1&9, 8th Block, Muthamizh Nagar, Kodungaiyur, Chennai, Tamil Nadu 600118, India","['(044) 25544574, 25544577']"
133,Sree Sastha Institute of Engineering and Technology - Courses,Tamil Nadu,Chennai,https://sasthainstitutions.in/,"Sree Sastha Nagar, Chennai - Bangalore Highway, Chembarambakkam, Chennai, Tamil Nadu 600123, India","['(044) 26810114, 26810115, 26810117 / ', ' 7305028155, 7824804015']"
134,Sri Kanyaka Parameswari Arts and Science College for Women - Courses,Tamil Nadu,Chennai,https://skpc.edu.in/,"No. 1, Audiappa Street, Chennai, Tamil Nadu 600001, India","['(044) 25394279 / ', ' 9940068891']"
135,Sri Krishna Engineering College - Courses,Tamil Nadu,Chennai,https://targetstudy.com/university/264/anna-university-chennai/,"Panapakkam, Near Padappai, Via Tambaram, Chennai, Tamil Nadu 601301, India","['(044) 27145503, 27145506']"
136,Sri Muthukumaran Institute of Technology - SMIT - Courses,Tamil Nadu,Chennai,https://targetstudy.com/university/264/anna-university-chennai/,"Chikkarayapuram (Near Mangadu), Chennai, Tamil Nadu 600069, India","['(044) 66110200, 66110203, 661102047']"
137,Sri Ramanujar Engineering College - Courses,Tamil Nadu,Chennai,http://www.sriramanujar.ac.in/,"Kolapakkam, Vandalu, Chennai, Tamil Nadu 600127, India","['(044) 22751380 / ', ' 9444859455, 9840832639']"
138,Sri Sai Ram Institute of Technology - Courses,Tamil Nadu,Chennai,https://sairamit.edu.in/,"Sai Leo Nagar, West Tambaram, Chennai, Tamil Nadu 600044, India","['(044) 22512111, 22512333, 22512444']"
139,Sri Sairam Engineering College - Courses,Tamil Nadu,Chennai,http://sairam.edu.in/,"Sai Leo Nagar, West Tambaram, Chennai, Tamil Nadu 600044, India",['(044) 22512222 (8 Lines)']
140,Srinivasa Institute of Engineering and Technology - Courses,Tamil Nadu,Chennai,https://targetstudy.com/university/264/anna-university-chennai/,"Parivakkam, Poonamalle Bye Pass Road, Chennai, Tamil Nadu 600056, India","['(044) 26492525, 26493505, 27894110, 27894111']"
141,SRM University - Ramapuram Campus,Universities in Tamil Nadu,Universities in Tamil Nadu,https://srmrmp.edu.in/,"Bharathi Salai, Ramapuram, Chennai, Tamil Nadu 600089, India","['(044) 43923042, 43923133, Toll Free No. 1800-102-1525 / ', ' 8939628771']"
142,SSK College - Courses,Tamil Nadu,Chennai,https://targetstudy.com/university/15624/jrn-rajasthan-vidyapeeth-university/,"City Center Plaza, Second Floor, Near Anna Statue in Mount Road, No. 7, Annai Salai, Chennai, Tamil Nadu 600002, India","['(044) 28588736 / ', ' 9600072855, 9600072455']"
143,St. Joseph's College (Arts & Science) - Courses,Tamil Nadu,Chennai,https://targetstudy.com/university/301/university-of-madras/,"Kundrathur High Road, Kovur, Chennai, Tamil Nadu 600128, India","[' 9444405816, 9444177762, 9444390739']"
144,St. Joseph's College of Engineering - Courses,Tamil Nadu,Chennai,http://www.stjosephs.ac.in,"Old Mamallapuram Road, Semmencherry, Chennai, Tamil Nadu 600119, India","['(044) 24501060, 24501449 / ', ' 9940104881, 9940104882']"
145,St. Joseph's Institute of Technology - Courses,Tamil Nadu,Chennai,https://targetstudy.com/university/264/anna-university-chennai/,"Old Mamallapuram Road, Semmancheri, Chennai, Tamil Nadu 600119, India",['(044) 24503132']
146,St. Louis College for the Deaf - Courses,Tamil Nadu,Chennai,https://targetstudy.com/university/301/university-of-madras/,"Canal Bank Road, Gandhi Nagar, Adyar, Chennai, Tamil Nadu 600020, India","['(044) 24421315 / ', ' 9025421313']"
147,St. Peter's College of Engineering and Technology - Courses,Tamil Nadu,Chennai,https://targetstudy.com/university/264/anna-university-chennai/,"College Road, Avadi, Chennai, Tamil Nadu 600054, India","[' 9791043355, 7358110157, 7358110158, 73581']"
148,St. Peter's Institute of Higher Education and Research,Universities in Tamil Nadu,Universities in Tamil Nadu,https://spiher.ac.in/,"Avadi, Chennai, Tamil Nadu 600054, India","['(044) 26555448, 26553720, 26553746 / ', ' 9445638085']"
149,St. Thomas College of Arts and Science - Courses,Tamil Nadu,Chennai,https://targetstudy.com/university/301/university-of-madras/,"140/6, AKR Road, St.Thomas Nagar, Koyambedu, Chennai, Tamil Nadu 600107, India","['(044) 24793069, 24797739']"
150,St. Xaviers Catholic College of Engineering (Autonomous) - Courses,Tamil Nadu,Chennai,http://www.sxcce.edu.in/,"Chunkankadi, Nagercoil, Chennai, Tamil Nadu 629003, India","['(04652) 259664, 227803, 224033, 237361']"
151,Stella Maris College (Autonomous) - Courses,Tamil Nadu,Chennai,https://targetstudy.com/university/301/university-of-madras/,"17, Cathedral Road, Chennai, Tamil Nadu 600086, India","['(044) 28111987, 28111951']"
152,Suverna International Institute of Management Studies - SIIMS - Courses,Tamil Nadu,Chennai,https://targetstudy.com/university/271/bharathiar-university/,"Prince Palace, Ettines Road, Ootacamund, Chennai, Tamil Nadu 643001, India","['(0423) 2452602, 2452609, 2441307']"
153,T.J. Institute of Technology - Courses,Tamil Nadu,Chennai,https://targetstudy.com/university/264/anna-university-chennai/,"Rajiv Gandhi Salai, (Old Mahabalipuram Road), Chennai, Tamil Nadu 600097, India","['(044) 29521952 / ', ' 9841114834']"
154,T.S. Narayanaswami College of Arts and Science - Courses,Tamil Nadu,Chennai,https://targetstudy.com/university/301/university-of-madras/,"Thalambur Road, off Old Mahabalipuram Road, Navalur, Chennai, Tamil Nadu 603103, India","['(044) 27435046, 27435047, 27435348']"
155,Tagore College of Arts and Science - Courses,Tamil Nadu,Chennai,,"Chromepet, Chennai, Tamil Nadu 600044, India","['(044) 22418061, 22411552']"
156,Tagore Engineering College - Courses,Tamil Nadu,Chennai,https://targetstudy.com/university/264/anna-university-chennai/,"Rathinamangalam, Vandalur (via), Chennai, Tamil Nadu 600127, India","['(044) 27409725, 27409726, 27409727, 27409728, 27409729']"
157,Tamil Nadu Arts and Science College - Courses,Tamil Nadu,Chennai,,"Adayalambattu, Chennai, Tamil Nadu 602102, India","['(044) 26533374, 29032662']"
158,Tamil Nadu Open University,Universities in Tamil Nadu,Universities in Tamil Nadu,http://www.tnou.ac.in,"No. 577, Anna Salai, Saidapet, Chennai, Tamil Nadu 600025, India",['(044) 24306600']
159,Thangavelu College of Science and Management - TCSM - Courses,Tamil Nadu,Chennai,https://targetstudy.com/university/301/university-of-madras/,"IT Highway, (Old Mahabalipuram Road), Karapakkam, Chennai, Tamil Nadu 600096, India","['(044) 24501408, 24501409 , 245010']"
160,Thangavelu Engineering College - Courses,Tamil Nadu,Chennai,https://targetstudy.com/university/264/anna-university-chennai/,"Rajiv Gandhi Salai (Old Mahabalipuram Road) Karapakkam, Chennai, Tamil Nadu 600097, India","['(044) 29521952 / ', ' 9841114834, 8939875566']"
161,The New College,Tamil Nadu,Chennai,https://thenewcollege.edu.in/,"New No. #147, Old No. #87, Peter's Road, Royapettah, Chennai, Tamil Nadu 600014, India","['(044) 28351269, 28350386']"
162,The New Royal College of Engineering and Technology - Courses,Tamil Nadu,Chennai,https://targetstudy.com/university/264/anna-university-chennai/,"East Coast Road Poonjeri Mahabalipuram, Chennai, Tamil Nadu 603104, India",['(044) 27443116']
163,Thiruthangal Nadar College - Courses,Tamil Nadu,Chennai,http://thiruthangalnadarcollege.org/,"Selavayal, Near Kaviarasu Kannadhasan Nagar Bus Terminus, Chennai, Tamil Nadu 600051, India","['(044) 25941717, 25942525']"
164,TMG College of Arts and Science - Courses,Tamil Nadu,Chennai,http://www.tmgcollege.edu.in/,"No. 85, Mudichur Road, At Manimangalam, Near Tambaram, Chennai, Tamil Nadu 601301, India","['(044) 65870619, 640550330 / ', ' 9444408047, 9445090963']"
165,University of Madras,Universities in Tamil Nadu,Universities in Tamil Nadu,http://www.unom.ac.in,"Navalar Nagar, Chepauk, Triplicane, Chennai, Tamil Nadu 600005, India","['(044) 25399422, 25399746']"
166,Valliammal College for Women - Courses,Tamil Nadu,Chennai,http://www.valliammal.edu.in/,"E- 9, Anna Nagar, Chennai, Tamil Nadu 600102, India",['(044) 26262816']
167,VEL High Tech Engineering College - Courses,Tamil Nadu,Chennai,https://targetstudy.com/university/264/anna-university-chennai/,"#60, Avadi - Vel Tech Road, Vel Nagar, Avadi, Chennai, Tamil Nadu 600062, India","['Toll Free No. (1800-212-7669) / ', ' 7358701998, 7358020151']"
168,Vel Tech Multi Tech Dr. Rangarajan Dr. Sakunthala Engineering College - Courses,Tamil Nadu,Chennai,https://targetstudy.com/university/264/anna-university-chennai/,"#38 (Old 24), Santi Sudha, ABM Avenue, Raja Annamalaipuram, Chennai, Tamil Nadu 600028, India","['(044) 24334845, 24335828']"
169,Vel Tech Ranga Sanku Arts College - Courses,Tamil Nadu,Chennai,https://targetstudy.com/university/301/university-of-madras/,"#42, Avadi-Alamathi Road, Vellanur Post, Avadi, Chennai, Tamil Nadu 600062, India","['(Toll Free No. 1800-30706949) / ', ' 9176904389']"
