,College_Name,State,City,URL_,Address,Phone_Number
0,Academy for Professional Excellence - Courses,West Bengal,Kolkata,https://targetstudy.com/university/15477/sikkim-manipal-university/,"2/1-C, Townshend Road, Bhowanipore, Kolkata, West Bengal 700025, India",['(033) 40227000']
1,Academy of Engineering and Management - AMS - Courses,West Bengal,Kolkata,http://www.aemk.org/,"2/80 Dumdum Road, First and 2nd Floor, Opposite GTR Gate, Near Dumdum Metro Station, Kolkata, West Bengal 700074, India","[' 9830051236, 9804565246']"
2,Adroit Learning Foundation,West Bengal,Kolkata,,"8-F, Green Park, Kolkata, West Bengal 70084, India",[' 9831112156']
3,Advanced Institute of Modern Management and Technology - AIMMT - Courses,West Bengal,Kolkata,https://targetstudy.com/university/372/west-bengal-university-of-technology/,"#55, Barrack Road Barrackpore, Kolkata, West Bengal 700120, India","['(033) 25947772, 25450607']"
4,Aliah University - AU,Universities in West Bengal,Universities in West Bengal,http://www.aliah.ac.in/,"Action Area II-A/27, New Town, Kolkata, West Bengal 700160, India",['(033) 23416444']
5,Amity University - Kolkata,Universities in West Bengal,Universities in West Bengal,https://amity.edu/kolkata/index.aspx,"Major Arterial Road, Action Area II, Rajarhat, New Town, Kolkata, West Bengal 700135, India","['(033) 71020304 - Reception / ', ' 9748582665, 9051662027']"
6,Annex College of Management Studies - Courses,West Bengal,Kolkata,https://targetstudy.com/university/243/singhania-university/,"BD-91, Salt Lake City, Sector I, Kolkata, West Bengal 700064, India","['(033) 40041129, 40041130, 23341780, 23341781 / ', ' 9903912045, 9903912046']"
7,Aptech Computer Education,West Bengal,Kolkata,,"4, Indralok, Sodepur, Opp. SBI HB Town
, Kolkata, West Bengal 700110, India","['(033) 25652228 / ', ' 9830061770']"
8,Aptech Computer Education - Behala,West Bengal,Kolkata,,"738, D.H. Road, 2nd Floor, Above UBI Bank, Behala, Kolkata, West Bengal 700008, India","['(033) 24460725 / ', ' 9330148679']"
9,Aptech Computer Education - Dum Dum Road,West Bengal,Kolkata,,"303, Dum Dum Road, Near Indira Maidan, Kolkata, West Bengal 700074, India",[' 9339545249']
10,Aptech Computer Education - Hazra,West Bengal,Kolkata,http://aptechkolkata.in/,"96-L, S.P. Mukherjee Road, First Floor, Near Jatin Das Metro, Kolkata, West Bengal 700026, India","['(033) 40731111 / ', ' 9339408422']"
11,Aptech Computer Education - Jessore Road,West Bengal,Kolkata,,"333/M/2, Jessore Road, Ground Floor, Near UCO Bank, Lake Town Branch, Kolkata, West Bengal 700089, India",[' 7890988777']
12,Attitude Management Academy - AMA - Courses,West Bengal,Kolkata,https://targetstudy.com/university/285/periyar-university/,"53-MB, Mahishbathan, Sector V, Saltlake City
, Kolkata, West Bengal 700102, India",['(033) 23678044']
13,Basu Bir Foundation - Courses,West Bengal,Kolkata,https://targetstudy.com/university/15477/sikkim-manipal-university/,"127-C, Raja S.C. Mallick Road, 2nd and 3rd Floor, Kolkata, West Bengal 700047, India","['(033) 24308049, 24308053 / ', ' 9831708385, 9432152375']"
14,Bengal Institute of Technology - Courses,West Bengal,Kolkata,https://targetstudy.com/university/372/west-bengal-university-of-technology/,"No. 1, Govt Colony, Basanti Road, Kolkata, West Bengal 700150, India","['(033) 23458004 / ', ' 9836544416, 9836544417, 9836544418, 9836544419']"
15,Binary Institute of Management and Technology - BIMT - Courses,West Bengal,Kolkata,https://targetstudy.com/university/238/punjab-technical-university/,"2 Circus Market Place, Kolkata, West Bengal 700017, India",['(033) 22801712']
16,Birla Institute of Technology - Kolkata - Courses,West Bengal,Kolkata,https://www.bitmesra.ac.in/BIT_Mesra?cid=6&pid=H,"Southend Conclave, 4th Floor, 1582 Rajdanga Main Road, Kolkata, West Bengal 700107, India","['(033) 24414542, 24414456, 65256728']"
17,BP Poddar Institute of Management and Technology - BPPIMT - Courses,West Bengal,Kolkata,http://www.bppimt.ac.in,"137, VIP Road, Poddar Vihar, Kolkata, West Bengal 700052, India","['(033) 40619174, 40619175, 40619176']"
18,Brainware School of Information Technology - BSIT - Courses,West Bengal,Kolkata,https://targetstudy.com/university/238/punjab-technical-university/,"Y-8, Block-EP, Sector V, Salt Lake, Kolkata, West Bengal 700091, India",['(033) 40200819']
19,Brainware University,Universities in West Bengal,Universities in West Bengal,http://www.brainwareuniversity.ac.in/,"398, Ramkrishnapur Road, Near Jagadighata Market, Barasat, Kolkata, West Bengal 700124, India","['(033) 71445576 / ', ' 7044447723']"
20,Budge Budge Institute of Technology - BBIT - Courses,West Bengal,Kolkata,http://www.bbit.edu.in,"Nischintapur, Budge Budge, Kolkata, West Bengal 700137, India","['(033) 24820676 / ', ' 9433023972']"
21,Calcutta Institute of Engineering and Management - Courses,West Bengal,Kolkata,http://www.ciem.ac.in/,"24/1-A, Chandi Ghosh Road, Kolkata, West Bengal 700040, India","['(033) 24219951, 24218998 / ', ' 6289566429, 6289571783']"
22,Camellia School of Engineering and Technology - CSET - Courses,West Bengal,Kolkata,http://www.cset.org.in/,"Nadibag, P.O. Kajipara, Barasat, Kolkata, West Bengal 700124, India","['(033) 25844536 / ', ' 9007030136, 9007030106, 9007030130']"
23,Centre for Development of Advanced Computing - C-DAC Kolkata - Courses,West Bengal,Kolkata,https://cdac.in/index.aspx?id=acts,"Plot- E-2/1, Block-GP, Sector V, Salt Lake Electronics Complex, Bidhannagar, Kolkata, West Bengal 700091, India","['(033) 23579846, 23575989']"
24,Chinsurah Institute of Management Technology - Courses,West Bengal,Kolkata,https://targetstudy.com/university/372/west-bengal-university-of-technology/,"Akhanbazar, Chinsurah, Hooghly, Kolkata, West Bengal 712101, India","['(033) 26805802, 26802631']"
25,Compete Infotech Academy,West Bengal,Kolkata,http://www.competeinfotechacademy.com/,"Corporate Office:- RDB Boulevard, Regus, 8th Floor, Room Number 830, Plot-K1, Sector V, Block EP & GP, Salt Lake City, Near Infinity Building, Big Cinema Building
, Kolkata, West Bengal 700064, India","[' 9433365039, 9830363622']"
26,Denature Edutech,West Bengal,Kolkata,,"4th Floor, Dum Dum Road, Kolkata, West Bengal 700074, India","[' 9073963574, 9073963575']"
27,Dinabandhu Andrews Institute of Technology and Management (DAITM) - Courses,West Bengal,Kolkata,http://www.daitm.org.in/,"Block-S, 1/406-A, Baishnabghata, Near Satyajit Roy Park, Patuli, Kolkata, West Bengal 700084, India","['(033) 24360099 / ', ' 9051880976, 9051880518']"
28,Dr. Zakir Husain Institute - Courses,West Bengal,Kolkata,http://www.zhi.org.in/,"Jaiswal House, 4th Floor, 8/1-C, Diamond Harbour Road, Kolkata, West Bengal 700027, India","[' 7687066548, 9433433659']"
29,Dreamzone School of Creative Studies - Courses,West Bengal,Kolkata,https://www.dreamzone.co.in/,"56/70, Netaji Subash Chandra Bose Road, Opposite Hot Chips, Near Malancha Cinema, Tollygunge, Kolkata, West Bengal 700040, India","['(033) 65559090 / ', ' 7003070278, 9073909024']"
30,EDIT - Educators in Design and Internet Technology,West Bengal,Kolkata,,"121, Rash Behari Ave, Triangular Park, Dover Terrace, Kalighat, Kolkata, West Bengal 700029, India",[' 8433935124']
31,Eminent College of Management and Technology - ECMT - Courses,West Bengal,Kolkata,https://targetstudy.com/university/372/west-bengal-university-of-technology/,"Moshpukur, Barbaria, Barasat, P.O. Jagannathpur
, Kolkata, West Bengal 700126, India","['(033) 25420269 / ', ' 9051622625, 8420430756']"
32,Exterior Interiors Ltd. - Courses,West Bengal,Kolkata,https://targetstudy.com/university/34033/mewar-university-mu/,"B2-50/51, B.B.T. Road, Bylane 1, Near Bata More, Paschim Jagtala, Mahestala, Kolkata, West Bengal 700141, India","[' 9038447964, 9038447968']"
33,Future Institute of Engineering and Management - FIEM - Courses,West Bengal,Kolkata,http://futureengineering.in/,"Sonarpur Station Road, Kolkata, West Bengal 700150, India","['(033) 24345615 / ', ' 9830088984, 9836107275']"
34,Future Institute of Technology (FIT) - Courses,West Bengal,Kolkata,https://targetstudy.com/university/372/west-bengal-university-of-technology/,"240, Garia Boral Main Road, Kolkata, West Bengal 700154, India","[' 9433927101, 9231846371, 9143462779']"
35,Genex Management and IT College - Courses,West Bengal,Kolkata,https://targetstudy.com/university/372/west-bengal-university-of-technology/,"Salt Lake, Sector 3, Block - FE 369, Near Tank No. 12, Kolkata, West Bengal 700078, India","['(033) 40047411 / ', ' 9231831737, 9831115343']"
36,George College - Courses,West Bengal,Kolkata,https://targetstudy.com/university/372/west-bengal-university-of-technology/,"136, B.B. Ganguly Street, Kolkata, West Bengal 700012, India","['(033) 22176143, 22176142 / ', ' 9830122991, 9830504319, 9836611649']"
37,George College of Management and Science - Courses,West Bengal,Kolkata,https://targetstudy.com/university/372/west-bengal-university-of-technology/,"Budge Budge Trunk Road, Chakmir Maheshtala, Kolkata, West Bengal 700141, India","['(033) 24927988, 24927900 / ', ' 8981461469, 9836611649, 9830262208']"
38,Government College of Engineering and Ceramic Technology - Courses,West Bengal,Kolkata,http://www.gcect.ac.in/,"#73, Abinash Chandra Banerjee Lane Belaghata, Kolkata, West Bengal 700010, India","['(033) 23701263, 23633674, 23633675']"
39,Government College of Engineering and Leather Technology - GCELT - Courses,West Bengal,Kolkata,http://www.gcelt.gov.in/,"LB-Block, Sector 3, Saltlake City, Kolkata, West Bengal 700098, India",['(033) 23356977']
40,Government College of Engineering and Textile Technology - Courses,West Bengal,Kolkata,http://www.gcetts.org,"12, William Carey Road, Serampore, Kolkata, West Bengal 712201, India","['(033) 26621058, 26623156']"
41,Guru Nanak Institute of Technology - GNIT - Courses,West Bengal,Kolkata,http://www.gnit.ac.in/,"157/F, Nilgunj Road, Panihati, Kolkata, West Bengal 700114, India","['(033) 25233900 / ', ' 9432012681']"
42,Gurunanak Institute of Technology - Courses,West Bengal,Kolkata,http://www.gnit.ac.in,"157/F Nilgunj Road, Panihati, Kolkata, West Bengal 700114, India",['(033) 25233900']
43,Heritage Institute of Technology - Courses,West Bengal,Kolkata,http://www.heritageit.edu,"Chowbaga Road, Anandapur, East Kolkata Township, Kolkata, West Bengal 700107, India","['(033) 66270600, 66270609, 66270614, 66270622']"
44,IBRAD School of Management and Sustainable Development - Courses,West Bengal,Kolkata,http://www.ibradindia.org/,"Prafulla Kanan, Kestopur (JL-17), VIP Road, Kolkata, West Bengal 700101, India","['(033) 27116330, 66210320, 66210310 / ', ' 9903873762, 9836363701']"
45,IKON Teachers Training Institute - Courses,West Bengal,Kolkata,http://www.ikon-ites.com/,"6, Beadon Row, Kolkata, West Bengal 700006, India","['(033) 25551190, 25552496 / ', ' 9163107204']"
46,Indian Institute of Information Management and Business Studies - Courses,West Bengal,Kolkata,,"62, Sri Arabinda Sarani, Kolkata, West Bengal 700005, India","['(033) 25338759, 25338785']"
47,Indian Institute of Software Technology - Courses,West Bengal,Kolkata,https://targetstudy.com/university/15477/sikkim-manipal-university/,"BF- 32, Salt Lake City, Sector 1, Kolkata, West Bengal 700017, India","['(033) 23376365, 23587315, 40077647']"
48,Indian Statistical Institute - ISI Kolkata,Universities in West Bengal,Universities in West Bengal,https://www.isical.ac.in/,"Headquarters:- #203, Barrackpore Trunk Road, Kolkata, West Bengal 700108, India",['(033) 25752001']
49,Institute of Business Management and Research - IBMR - Courses,West Bengal,Kolkata,https://targetstudy.com/university/372/west-bengal-university-of-technology/,"#6/1, Swinhoe Street, Kolkata, West Bengal 700019, India",['(033) 24406755']
50,Institute of Engineering and Management - IEM - Courses,West Bengal,Kolkata,http://www.iemcal.com,"120, S.D.F. Building, Saltlake Electronics Complex, Kolkata, West Bengal 700091, India","['(033) 23578189, 23572995 / ', ' 9674323320']"
51,Institute of Genetic Engineering - Courses,West Bengal,Kolkata,https://targetstudy.com/university/372/west-bengal-university-of-technology/,"30, Thakurhat Road, Badu, Madhyamgram, Kolkata, West Bengal 700128, India","['(033) 25260051, 25260052, 25260053 / ', ' 9732708548, 9831117775, 9831095960']"
52,Institute of Hotel and Restaurant Management - IHRM - Courses,West Bengal,Kolkata,https://targetstudy.com/university/372/west-bengal-university-of-technology/,"Sonargaon Park, Tegharia, Sonarpur, Kolkata, West Bengal 700150, India","['(033) 24346885, 24347138 / ', ' 9830529846, 9830566266']"
53,Institute of Management Study - Courses,West Bengal,Kolkata,http://www.imscal.org/,"E.M. Bypass, 93, Mukundapur Main Road, (Near Devi Shetty Hospital) 
, Kolkata, West Bengal 700099, India","['(033) 24264168, 28371749 / ', ' 7003196293, 9831637683, 8910688040']"
54,Institute of Professional Studies and Research - Courses,West Bengal,Kolkata,,"Shakespear Sarani, Unit No. 401(A), 4th Floor, Chandan Niketan Building (Near Kalamandir), Kolkata, West Bengal 700017, India",['(033) 30604672']
55,Institute of Radio Physics and Electronics - IRPE - Courses,West Bengal,Kolkata,https://www.irpel.in/,"University of Calcutta 92, Acharya Prafulla Chandra Road, Kolkata, West Bengal 700009, India","['(033) 23559115, 23559116']"
56,Jadavpur University,Universities in West Bengal,Universities in West Bengal,http://www.jaduniv.edu.in/,"Main Campus:- 188, Raja S.C. Mallick Road, Kolkata, West Bengal 700032, India","['(033) 24146666, 24572227']"
57,Jayasree Academy - Courses,West Bengal,Kolkata,,"14, Ishan Mondal Garden Road
, Kolkata, West Bengal 700038, India",[' 8697151812']
58,JIS University,Universities in West Bengal,Universities in West Bengal,http://jisuniversity.ac.in/,"81, Nilgunj Road, Agarpara, Kolkata, West Bengal 700109, India","['(033) 25636677 / ', ' 8697743361, 8697743362, 9330906163']"
59,Jyotirmoy School of Management and Sciences - Courses,West Bengal,Kolkata,https://targetstudy.com/university/372/west-bengal-university-of-technology/,"63/1/2-A, Sarat Bose Road, Kolkata, West Bengal 700025, India","['(033) 24748282, 24852229']"
60,Maulana Abul Kalam Azad University of Technology,Universities in West Bengal,Universities in West Bengal,,"BF 142, Sector 1, Salt Lake City, Kolkata, West Bengal 700064, India","['(033) 23210731, 23211327']"
61,Mayfair Business School - Courses,West Bengal,Kolkata,,"Mayfair Tower, 194 Hossenpur, Chowbaga Road, EM Byepass, Kalikapur, Kolkata, West Bengal 700107, India",[' 9564733330']
62,Meghnad Shah Institute of Technology - Courses,West Bengal,Kolkata,http://www.msitcollege.org,"Techno Complex, Madurdahabe Side, NRI Complex, Behind Rubi Hospital Uchhapota, Kolkata, West Bengal 700150, India","['(033) 24431032, 30943462 / ', ' 9836544416, 9836544417, 9836544418, 9836544419']"
63,Narula Institute of Technology - NIT - Courses,West Bengal,Kolkata,http://www.nit.ac.in,"81, Nilgunj Road, Agarpara, Kolkata, West Bengal 700109, India","['(033) 25638888, 25637777, 25837029 / ', ' 8100192400, 8902496651, 6291977702']"
64,National Institute of Technical Teachers Training and Research - NITTTR - Courses,West Bengal,Kolkata,http://www.nitttrkol.ac.in,"Block FC, Sector III, Salt Lake City, Kolkata, West Bengal 700106, India","['(033) 23587442, 66251901']"
65,Netaji Subhas Open University,Universities in West Bengal,Universities in West Bengal,http://www.wbnsou.ac.in,"DD-26, Sector I, Salt Lake City, Kolkata, West Bengal 700064, India",['(033) 40663220']
66,Netaji Subhash Engineering College - NSEC - Courses,West Bengal,Kolkata,http://www.nsecollege.org/,"Techno City, Panchpotha Garia, Kolkata, West Bengal 743516, India","['(033) 24363333, 24361285 / ', ' 9836544416, 9836544417, 9836544419']"
67,Nexgen School of Management and Technology - NSMT - Courses,West Bengal,Kolkata,,"91/A/61, B.L. Saha Road, Near Tollygange, Metro, Kolkata, West Bengal 700053, India","['(033) 24032118, 22827062 / ', ' 9831899888']"
68,NIMS School of Hotel Management - Nightingale Institute of Management Studies - Courses,West Bengal,Kolkata,https://nimseducation.com/,"CF-78, Salt Lake City, Sector 1, Kolkata, West Bengal 700064, India","['(033) 23210466, 23218612, 40041077 / ', ' 9230459363']"
69,Nopany Institute of Professional Studies - NIPS - Courses,West Bengal,Kolkata,https://targetstudy.com/university/372/west-bengal-university-of-technology/,"3, Pretoria Street, Kolkata, West Bengal 700041, India","['(033) 22827058, 22827059 / ', ' 9830329882, 9830031872']"
70,NPC College of Science and Management - Courses,West Bengal,Kolkata,,"Bakhrahat Road, Thakurpukur Gate No. 1, Kolkata, West Bengal 700104, India","['(033) 24980517, 24980516, 24980478, 24980477, 32446746']"
71,NSHM College of Management and Technology - Courses,West Bengal,Kolkata,http://www.nshm.com/,"124, B.L. Saha Road, Kolkata, West Bengal 700053, India","['(033) 24032300, 24032301']"
72,Pailan College of Management and Technology - Courses,West Bengal,Kolkata,http://www.pcmt-india.net,"Bengal Pailan Park Plot B, 187-206, Phase 3, Joka, Kolkata, West Bengal 700104, India","['(033) 24535605 / ', ' 9830800310, 8240585548']"
73,Pailan School of International Studies - PSIS - Courses,West Bengal,Kolkata,https://targetstudy.com/university/372/west-bengal-university-of-technology/,"Plot #B-149-156, Phase 2, Bengal Pailan Park (Near IIM Joka) Off D.H. Road, Kolkata, West Bengal 700104, India","['(033) 24978266 / ', ' 9830769800']"
74,Prajnanananda Institute of Technology and Management - PITM - Courses,West Bengal,Kolkata,https://pitmkol.org/,"94/2, Park Street, Near Park Circus 7 Point, Kolkata, West Bengal 700017, India","[' 9830304496, 9830304566, 8420583460']"
75,Ramakrishna Mission Shilpamandira Computer Centre - Courses,West Bengal,Kolkata,http://www.rkmscc.org/home.html,"313, G.T. Road, Belur Math, Kolkata, West Bengal 711202, India","['(033) 2654913, 2654914, 26547739']"
76,Rays S.P. Bhowal Institute of Technology and Management - Courses,West Bengal,Kolkata,https://targetstudy.com/university/149/karnataka-state-open-university/,"8, M.B. Road, Panjabi Bagan, Birati, Kolkata, West Bengal 700051, India","['(033) 65226832 / ', ' 9477174367']"
77,RCC Institute of Information Technology - RCCIIT - Courses,West Bengal,Kolkata,https://targetstudy.com/university/372/west-bengal-university-of-technology/,"Canal South Road, Beliaghata, Kolkata, West Bengal 700015, India","['(033) 23232463, 23231534 / ', ' 6290821297']"
78,RMR Institute of Computer Educations - Courses,West Bengal,Kolkata,,"P-165, Sector B, First Floor, Metropolitan, Near E.M. Bypass, Kolkata, West Bengal 700105, India","['(033) 23232223, 23232224, 65365011 / ', ' 9007069691, 9007069692, 9007069693, 9007069694']"
79,Sanchalit Swami Ghanshyam Jivandasji Institute of Management and Information Technology - Courses,West Bengal,Kolkata,https://targetstudy.com/university/101/kachchh-university/,"Shri Swaminarayan Gurukul, Bhuj- Mandvi Highway, Koday Pul, Kolkata, West Bengal 370460, India",['(02834) 275603']
80,SCM Institute of Engineering and Technology - Courses,West Bengal,Kolkata,http://www.scmatti.org/home,"Kaji Najrul Islam Avenue (VIP Road), Kaikhali, Kolkata, West Bengal 700052, India","['(033) 25250116 / ', ' 9432366852']"
81,Sir Gurudas Mahavidyalaya - Courses,West Bengal,Kolkata,https://targetstudy.com/university/362/university-of-calcutta/,"33/6/1, Biplabi Barin Ghosh Sarani, Muraripukur Main Road, Ultadanga, Kolkata, West Bengal 700067, India","['(033) 23561998, 23560404']"
82,Srimati Techno Institution - Courses,West Bengal,Kolkata,http://srimatitechno.org/STI2017/,"Rajarhat Super Market,Opposite Rajarhat P.S., Kolkata, West Bengal 700135, India","['(033) 24753387, 24551387 / ', ' 9230062677, 9230076099, 9230076097, 9230076']"
83,Srimati Techno Institution - Baruipur - Courses,West Bengal,Kolkata,http://srimatitechno.org,"Padmapukur, Kolkata, West Bengal 700144, India",[' 9230062675']
84,Srimati Techno Institution - Rajarhat - Courses,West Bengal,Kolkata,http://srimatitechno.org,"Rajarhat Super Market, Opposite Rajarhat, Kolkata, West Bengal 700135, India",[' 9230062677']
85,Srimati Techno Institution - Rampurhat - Courses,West Bengal,Kolkata,http://srimatitechno.org/,"Suryadaya Market Complex, First Floor (Bharshala More), Kolkata, West Bengal 731224, India",[' 9230062675']
86,St. Mary's Technical Campus - Courses,West Bengal,Kolkata,,"Saibona Village, Opposite West Bengal State University, Ichapur Nilgunge Gram Panchayat, Barasat, North 24 Parganas, Kolkata, West Bengal 700126, India","['(033) 25250530 / ', ' 8420247078, 8420247079, 8420199260']"
87,St. Peter's College - Courses,West Bengal,Kolkata,,"6/1, Sarat Chatterjee Avenue, Kolkata, West Bengal 700029, India",['(033) 24663289']
88,St. Thomas College of Engineering and Technology,West Bengal,Kolkata,http://www.stcet.ac.in,"4, Diamond Harbour Road, Kidderpore, Kolkata, West Bengal 700023, India","['(033) 24481081, 24481082 / ', ' 8648857332, 8648891532']"
89,Swami Vivekananda Institute of Modern Science - SVIMS - Courses,West Bengal,Kolkata,https://targetstudy.com/university/372/west-bengal-university-of-technology/,"Karbala More, Sonarpur Station Road, Kolkata, West Bengal 700103, India","['(033) 24283035 / ', ' 8335043359, 9475637852, 9007846840, 8335043748']"
90,Swami Vivekananda Institute of Science and Technology - SVIST - Courses,West Bengal,Kolkata,http://www.svist.org/,"Dakshin Gobindapur, Sonarpur, Kolkata, West Bengal 700145, India","['(033) 24379913 / ', ' 9831084446, 9434360673, 9831012072, 9475637852']"
91,Swami Vivekananda University (SVU),Universities in West Bengal,Universities in West Bengal,http://swamivivekanandauniversity.ac.in/,"Telinipara, Barasat - Barrackpore Road, Bara Kanthalia, Kolkata, West Bengal 700121, India",[' 7044086270']
92,Syamaprasad Institute of Technology and Management - SITM - Courses,West Bengal,Kolkata,http://syamaprasadinstt.org/sitm/,"7, Raja Rammohon Roy Road, Kolkata, West Bengal 700041, India","['(033) 24202611, 24202655']"
93,Techno India College of Technology - TICT - Courses,West Bengal,Kolkata,http://tictcollege.in/,"New Town Mega City, Rajarhat, Kolkata, West Bengal 700156, India","['(033) 23242050, 23242091 / ', ' 9674112076, 9674112079']"
94,Techno India Salt Lake - Courses,West Bengal,Kolkata,https://targetstudy.com/university/372/west-bengal-university-of-technology/,"EM-4/1, Sector- V, Salt Lake, Kolkata, West Bengal 700091, India","['(33) 23575683, 23575684, 23575686 / ', ' 9836544416, 9836544417, 9836544418, 9836544419']"
95,Techno India University,Universities in West Bengal,Universities in West Bengal,http://technoindiauniversity.ac.in/index.php,"EM-4, Sector V, Salt Lake, Kolkata, West Bengal 700091, India","[' 9836544417, 9836544418, 9836544419']"
96,The Heritage Academy - THA - Courses,West Bengal,Kolkata,http://www.tha.edu.in/,"994, Madurdaha, Chowbaga Road, Anandapur,
P.O. East Kolkata Township, Kolkata, West Bengal 700107, India","['(033) 64525794 / ', ' 9830411222, 9830019595, 9681286875']"
97,The Institute of Computer Engineers - Courses,West Bengal,Kolkata,https://www.iceiweb.org/,"Chatterjee International Center, 33-A  Chowringhee Road, Kolkata, West Bengal 700071, India","['(033) 22176044, 22269785, 22176030']"
98,TIIME College of Engineering - Courses,West Bengal,Kolkata,,"Head Office:- 139 Feeder Road, Belgharia, Kolkata, West Bengal 700056, India","['(033) 25444644, 65330013 / ', ' 9830637837, 9674702280']"
99,University of Calcutta,Universities in West Bengal,Universities in West Bengal,http://www.caluniv.ac.in,"Senate House, 87/1 College Street, Kolkata, West Bengal 700073, India",['(033) 22410071']
100,University of Engineering and Management - UEM,Universities in West Bengal,Universities in West Bengal,http://uem.edu.in/uem-kolkata/,"University Area, Plot No. III, B/5, New Town, Action Area III, Kolkata, West Bengal 700156, India","['(033) 23572059, 23572995 - For Admission / ', ' 9051151057, 9830169792']"
101,Usha Martin Academy (UMA),West Bengal,Kolkata,,"Opposite CMD Housing, Kalyani Express Highway, Kolkata, Kolkata, West Bengal 700122, India",[' 9330994718']
102,Usha Martin Academy - UMA - Courses,West Bengal,Kolkata,,"Dream Park Complex, 468, Dakshin Kumrokhali, Sonarpur Station Road, Kolkata, West Bengal 700150, India",[' 9007017138']
103,Vision Institute of Professional Study - VIPS - Courses,West Bengal,Kolkata,https://targetstudy.com/university/310/sam-higginbottom-institute-of-agriculture-technology-and-sciences/,"114/D, Garfa Main Road, Garfa, Kolkata, West Bengal 700075, India","['(033) 65002166 / ', ' 9477081571, 9933118894']"
104,Vista Concord School of Management - Courses,West Bengal,Kolkata,https://targetstudy.com/university/238/punjab-technical-university/,"EC 96, Salt Lake City, Kolkata, West Bengal 700064, India","['(033) 23596389, 23596390']"
105,Women's Christian College - Courses,West Bengal,Kolkata,https://targetstudy.com/university/362/university-of-calcutta/,"6, Greek Church Row, Kalighat, Kolkata, West Bengal 700026, India",['(033) 24643341']
