,index,Unnamed: 0,College_Name,State,City,URL_,Address,Phone_Number
0,3,3,A.I's Homai Peerbhoy Computer Centre - Courses,Maharashtra,Mumbai,https://anjumaniislam.org/our-institutes/other-institutions-managed-by-anjuman-i-islam/,"92, Dr. D.N. Road, CST, Mumbai, Maharashtra 400001, India","['(022) 22611494, 22611495 / ', ' 9820096119']"
1,25,25,Abhinav Institute of Technology and Management - Dadar Campus - Courses,Maharashtra,Mumbai,,"Vivekand Classes Premises, Blue Perl, Beside Sarswat Bank, Senapati Bapat Road, Dadar 
, Mumbai, Maharashtra 400028, India","['(022) 24329775, 24384262 / ', ' 9322948376']"
2,30,30,Abhinav Institute of Technology and Management - Pune Campus - Courses,Maharashtra,Mumbai,,"Sawata Mali Bhavan, 2nd Floor, 727 Budhwar Peth, Beside Kasba Ganpati, Near Shanivar Wada, Mumbai, Maharashtra 411002, India","['(020) 24461167, 24461886 / ', ' 9323128988']"
3,127,127,"Aegis School of Business, Data Science, Cyber Security and Telecommunication - Courses",Maharashtra,Mumbai,https://www.aegis.edu.in/,"Kailas Business Park, A Wing 19th Floor, Powai Hiranandani Link Road, Vikhorali West, Mumbai, Maharashtra 400079, India","[' 9022137010, 8422970034, 8828084908']"
4,141,141,Agrawal Institute of Management and Technology - AIMT - Courses,Maharashtra,Mumbai,https://targetstudy.com/university/207/tilak-maharastra-vidyapeeth/,"8-B 178 2768, Tagore Nagar, Vikhroli East, Mumbai Suburban, Sona Enterprises Colony, Mumbai, Maharashtra 400083, India","['(022) 25741867, 25741287 / ', ' 9221918165']"
5,152,152,Aim Computers Education,Maharashtra,Mumbai,http://www.aimcomputerseducation.com/,"Basement A-15, Bappa Sitaram Market, Near Railway Station, Opposite Sagar Sweet, Achole Road, Mumbai, Maharashtra 401209, India","[' 7066716001, 8552952363']"
6,172,172,Akbar Peerbhoy College of Commerce and Economics - Courses,Maharashtra,Mumbai,http://apcollege.in/index.php,"M.S. Ali Road, Near Do Taki, Grant Road (East), Mumbai, Maharashtra 400008, India","['(022) 23074122, 23083405, 23051106']"
7,298,298,Animatix Computer Education - Courses,Maharashtra,Mumbai,,"#Sector 1, Building No. 67, 3rd Floor, 303, 304, Opposite Thane Bus Stop, Mira Road, Mumbai, Maharashtra 401107, India","['(022) 28125907, 28125924']"
8,305,305,Anjuman-E-Islam Akbar Peerbhoy College of Commerce and Economics - Courses,Maharashtra,Mumbai,http://www.apcollege.in/,"Maulana Shaukatali Road, Near Do Taaki, Grant Road (East), Mumbai, Maharashtra 400008, India","['(022) 23074122, 23083405']"
9,306,306,Anjuman-I-Islam M.H. Saboo Siddik College of Engineering - Courses,Maharashtra,Mumbai,https://www.mhssce.ac.in/,"#8, Saboo Siddik Polytechnic Road, Post Box No. 4627, Byculla, Mumbai, Maharashtra 400008, India",['(022) 23012922']
10,325,325,Annasaheb Chudaman Patil College of Engineering - ACPCE,Maharashtra,Mumbai,https://targetstudy.com/university/194/university-of-mumbai/,"Plot No. 17, Sion - Panvel Expressway, Opposite Kharghar Railway Station, Sector 4, Kharghar, Navi Mumbai, Mumbai, Maharashtra 410210, India","['(022) 27745722, 27745732 / ', ' 9769111241']"
11,347,347,AP Shah Institute of Technology - APSIT - Courses,Maharashtra,Mumbai,https://targetstudy.com/university/194/university-of-mumbai/,"Survey No. 12, 13, Opposite Hypercity, Kasar Vadawali, Ghod Bunder Road, Thane (W), Mumbai, Maharashtra 400615, India","['(022) 25973737, 25973738, 25973739 / ', ' 7738305400, 7738940600']"
12,473,473,Atharva College of Engineering - Courses,Maharashtra,Mumbai,http://www.atharvacoe.ac.in/,"Atharva Educational Complex, Malad Marve Road, Charkop Naka, Malad (W), Mumbai, Maharashtra 400095, India",['(022) 40294949']
13,474,474,Atharva Institute of Information Technology - AIIT - Courses,Maharashtra,Mumbai,https://atharvaiit.co.in/,"Atharva Educational Complex, Malad-Marve Road, Charkop Naka, Malad West, Mumbai, Maharashtra 400095, India","['(022) 40294931, 40294949 / ', ' 9867914583']"
14,563,563,Balaji Institute of Management and Technical Studies - Courses,Maharashtra,Mumbai,https://targetstudy.com/university/149/karnataka-state-open-university/,"3, Gupta Bhavan First Floor, Next to Ganatra Nursing Home, Opposite Mulund Railway Station, Mulund West, Mumbai, Maharashtra 400080, India","['(022) 25903013 / ', ' 9930550029']"
15,641,641,"BGPS' Mumbai College of Arts, Commerce and Science - Courses",Maharashtra,Mumbai,https://mumbaicollege.in/,"J.K Jadhav Knowledge Center, Nadkarni Park, Behind B.P.T. Hospital Wadala (East), Mumbai, Maharashtra 400037, India","['(022) 24162168 / ', ' 9763396910']"
16,696,696,Bharati Vidyapeeth College of Engineering - Courses,Maharashtra,Mumbai,https://targetstudy.com/university/194/university-of-mumbai/,"CBD, Belapur, Sector 7, Near Kharkhar Railway Station, Mumbai, Maharashtra 400614, India","['(022) 27571074, 27572140']"
17,700,700,Bharatiya Vidya Bhavans Sardar Patel Institute of Technology - Courses,Maharashtra,Mumbai,https://targetstudy.com/university/194/university-of-mumbai/,"Bhavans Campus, Munshi Nagar, Andheri (West), Mumbai, Maharashtra 400058, India","['(022) 26707440, 26287250']"
18,716,716,Bhavna Trust's Junior and Degree College of Commerce and Science - Courses,Maharashtra,Mumbai,http://www.bhavnatrustscollege.com/,"Plot No. 5, Sunder Baug, Shivaji Chowk, Deonar, Mumbai, Maharashtra 400088, India","['(022) 25518649, 25484950']"
19,821,821,Brainpoint  Institute of Computer Education - Courses,Maharashtra,Mumbai,http://www.brainpoint.net,"Ground Floor, Ratan Abad Society, T.J. Road, Bhatia Hospital Lane, Opposite Wallace Apartments, Grant Road (West), Mumbai, Maharashtra 400007, India","['(022) 23800987, 23885832, 23894921, 23804059']"
20,857,857,"Bunt's Sangha's S.M. Shetty College of Science, Commerce and Management Studies - Courses",Maharashtra,Mumbai,http://smshettycollege.edu.in/,"Hiranandani Gardens, Powai, Mumbai, Maharashtra 400076, India","['(022) 61327352, 61327356, 61327363']"
21,858,858,Bunts Sangha Mumbai's Anna Leela College of Commerce and Economics & Shobha Jayaram Shetty College - Courses,Maharashtra,Mumbai,http://alsj.bunts.edu.in/,"Shashi Manmohan Shetty Higher Education Complex, Opposite Buntara Bhavana, Buntara Marg, Kurla (E), Mumbai, Maharashtra 400070, India","['(022) 24059000, 24059099, 24057249']"
22,917,917,C.M.S. Computer Institute,Maharashtra,Mumbai,,"CMS Info Systems Private Ltd., 11th Floor, Silver Metropolis, Off Western Express Highway, Opposite SRPF Grounds, Goregaon (East), Mumbai, Maharashtra 400063, India","['(022) 67553100, 67553104']"
23,972,972,Centre for Development of Advanced Computing - C-DAC Mumbai - Courses,Maharashtra,Mumbai,https://cdac.in/index.aspx?id=mumbai,"Gulmohar Cross Road No. 9, Juhu, Mumbai, Maharashtra 400049, India","['(022) 26201606, 26201574']"
24,1008,1008,"Chandrabhan Sharma College of Arts, Science and Commerce - Courses",Maharashtra,Mumbai,https://targetstudy.com/university/194/university-of-mumbai/,"Powai Vihar, Powai, Mumbai, Maharashtra 400076, India",[' 7738776505']
25,1028,1028,Chetana's H.S. College of Commerce and Smt. Kusumtai Chaudhari College of Arts - Courses,Maharashtra,Mumbai,https://targetstudy.com/university/194/university-of-mumbai/,"Survey No. 341, Chetana Mahavidyalaya Marg, Bandra East, Mumbai, Maharashtra 400055, India","['(022) 62157898 / ', ' 7208698343, 9167156186, 9869247175']"
26,1140,1140,Compufield Institute,Maharashtra,Mumbai,http://compufield.com/,"Head Office:- Chinoy Mansion, First Floor, Block #2, Opposite St. Stephen's Church, Warden Road, Mumbai, Maharashtra 400036, India","['(022) 23676218, 23671772 / ', ' 9820134058']"
27,1141,1141,Compufield Institute (Bandra) - Courses,Maharashtra,Mumbai,http://compufield.com/,"O Priya Building, Dr. Peter Dias Road, Near Mehboob Studio, First Floor, Block 6, Take Left From Kalpana Palace, 2nd Building on Left
, Mumbai, Maharashtra 400050, India","['(022) 26551794 / ', ' 9819006132']"
28,1145,1145,Computrain Centre - Courses,Maharashtra,Mumbai,,"Sarojini Naidu Road, Mulund West, Mumbai, Maharashtra 400080, India","['(022) 25647835, 25913002']"
29,1146,1146,Concourse Software Training Institute - Courses,Maharashtra,Mumbai,,"#313, 3rd Floor B-Wing Vardhaman Chambers, Sector 17, Vashi, Mumbai, Maharashtra 400703, India","['(022) 27655533 / ', ' 9892176766']"
30,1183,1183,"D.G. Ruparel College of Arts, Science and Commerce - Courses",Maharashtra,Mumbai,http://www.ruparel.edu/,"Senapati Bapat Marg, Mahim, Mumbai, Maharashtra 400016, India","['(022) 24303733, 24303081, 24361139']"
31,1191,1191,Dadar College of Management - Courses,Maharashtra,Mumbai,,"Dr. Antonio de Silva, New Building, Near Kabutar Khana, S.K. Bole Road Dadar (W), Mumbai, Maharashtra 400028, India","['(022) 24216783, 65911792']"
32,1316,1316,Dhirajlal Talakchand Sankalchand Shah College of Commerce - DTSS - Courses,Maharashtra,Mumbai,https://dtss.sanskarsarjan.org/,"Kurar, Malad (E), Mumbai, Maharashtra 400097, India","[' 8591377595,  8433888534, 8591376800']"
33,1352,1352,Divine Image College - Courses,Maharashtra,Mumbai,https://targetstudy.com/university/278/madurai-kamaraj-university/,"Ashoka Shopping Center, Navghar Road, Navgarh, Bhayander East, Mumbai, Maharashtra 401105, India","['(022) 28165569 / ', ' 9892770044']"
34,1376,1376,Don Bosco Institute of Technology - Courses,Maharashtra,Mumbai,http://www.dbit.in/,"Premier Automobiles Road, Opposite Fiat Company, Kurla (W), Mumbai, Maharashtra 400070, India",['(022) 68878700']
35,1420,1420,Dr. BMN College of Home Science - Courses,Maharashtra,Mumbai,https://targetstudy.com/university/14974/shreemati-nathibai-damodar-thackersey-women-university-churchgate/,"338, Rafi Ahmed Kidwai Road, Matunga, Mumbai, Maharashtra 400019, India","['(022) 24095792, 24035296']"
36,1557,1557,EDIT - Educators in Design and Internet Technology - Andheri West,Maharashtra,Mumbai,http://edit.co.in/,"Madhaveshwar CHS, First Floor, Flat No. 8, Above Bootmaker, Next to Andheri West Bus Depot, S.V. Road, Andheri(W), Mumbai, Maharashtra 400053, India",[' 8433935124']
37,1560,1560,EDIT - Educators in Design and Internet Technology - Charni Road,Maharashtra,Mumbai,,"101 Anmol society, French Bridge, Opera House, Girgaon, Mumbai, Maharashtra 400004, India",[' 8433935124']
38,1561,1561,EDIT - Educators in Design and Internet Technology - Dadar West,Maharashtra,Mumbai,http://edit.co.in/,"203, 2nd Floor, Ramkunj CHS, R.K. Vaidya Road, Near Saibaba Mandir, Dadar(W)
, Mumbai, Maharashtra 400028, India",[' 8433935124']
39,1562,1562,EDIT - Educators in Design and Internet Technology - Ghatkopar (East),Maharashtra,Mumbai,,"310, Sai Infotech, Station Road, Near Railway Station, Ghatkopar (East), Mumbai, Maharashtra 400077, India",[' 9820046072']
40,1567,1567,EDIT - Educators in Design and Internet Technology - Mulund,Maharashtra,Mumbai,,"601, Parmeshwari Plaza, Above HDFC Bank, N.S. Road, Near Mulund (West) Station, Mumbai, Maharashtra 400080, India",[' 9819646072']
41,1569,1569,EDIT - Educators in Design and Internet Technology - Thane West - Courses,Maharashtra,Mumbai,,"Jaishree Aarpments, 3rd Floor, Opposite Alok Restaurant, Ghokhale Road, Near Thane West Railway Station, Thane(W), Mumbai, Maharashtra 400604, India",[' 8080607170']
42,1571,1571,EDIT - Educators in Design and Internet Technology - Vashi - Courses,Maharashtra,Mumbai,http://edit.co.in/,"701, 7th Floor, Realtech Park, Plot No. 39/2, Above LG Showroom, Sector 30-A, Vashi, Mumbai, Maharashtra 400701, India",['(022) 27811024']
43,1586,1586,Eminent Institute of Management and Technology - EIMT,Maharashtra,Mumbai,http://www.eminentinstitute.org/,"138, Softnet Computer, Harmony Plaza, Opposite State Bank of India, Boisar
, Mumbai, Maharashtra 401501, India",[' 8552068520']
44,1608,1608,Excel College of Higher Education - Courses,Maharashtra,Mumbai,,"153, Second Floor, Raghuleela Mall Opposite Vashi Station, Vashi, Navi Mumbai, Mumbai, Maharashtra 400703, India",['(022) 40137932']
45,1641,1641,Fortius Institute of Training - Courses,Maharashtra,Mumbai,,"K-104, First Floor, Tower No. 6, International Infotech Park, Vashi Railway Station Complex, Mumbai, Maharashtra 400705, India",['(022) 67126000']
46,1646,1646,Fr. Conceicao Rodrigues College of Engineering - Courses,Maharashtra,Mumbai,http://www.frcrce.ac.in,"Fr. Agnel Ashram, Bandstand, Bandra (W), Mumbai, Maharashtra 400050, India",['(022) 67114000']
47,1684,1684,Gandhi Institute of Computer Education and Information Technology,Maharashtra,Mumbai,http://www.bhavans.info/college/gandhi_computer.asp,"Bharatiya Vidya Bhavan, Kulapati K.M. Munshi Marg, Mumbai, Maharashtra 400007, India","['(022) 23697098, 23684924, 23634462, 23634464']"
48,1708,1708,Garware Institute of Career Education and Development - GICED - Courses,Maharashtra,Mumbai,http://gicededu.co.in/,"Vidyanagari, Santacruz (East), Mumbai, Maharashtra 400098, India","['(022) 69195614, 69195607, 69195605 / ', ' 9987395457, 9702142191, 8104412071']"
49,1767,1767,Ghanshyamdas Saraf Girls College of Arts and Commerce - Courses,Maharashtra,Mumbai,https://targetstudy.com/university/194/university-of-mumbai/,"Rajasthani Sammelan's Educational Complex, S.V. Road, Malad (West), Mumbai, Maharashtra 400064, India","['(022) 45207766, 45207777']"
50,1810,1810,Globenet Computer Education - Courses,Maharashtra,Mumbai,http://www.globeneteducation.in/,"43, Salex Center, Kalina, Opposite Archies Gallary, Santacruz (E), Mumbai, Maharashtra 400029, India","['(022) 26664215 / ', ' 9324042517, 9594323879, 7977323879']"
51,1997,1997,"Guru Nanak College of Arts, Science and Commerce - Courses",Maharashtra,Mumbai,https://targetstudy.com/university/194/university-of-mumbai/,"Guru Tegh Bahadur Nagar, Mumbai, Maharashtra 400037, India","['(022) 24071098 / ', ' 9321734389']"
52,2155,2155,Holy Angels College - Courses,Maharashtra,Mumbai,https://targetstudy.com/university/363/university-of-kalyani/,"Vishal Deep, 363/383, C.T.S. No. 19, Mangal Murti Hospital Road, RSC 37/28, Gorai - 2, Borivali West, Mumbai, Maharashtra 400091, India",[' 9322693453']
53,2185,2185,ICLES Motilal Jhunjhunwala College - Courses,Maharashtra,Mumbai,https://targetstudy.com/university/194/university-of-mumbai/,"Plot No. 53, Sector 9/A, Amlendu Roy Marg, Vashi Navi Mumbai, Mumbai, Maharashtra 400703, India",['(022) 27663061']
54,2246,2246,Indian Institute of Hardware Technology - IIHT Kharghar,Maharashtra,Mumbai,,"26, First Floor, S.N. Park, Opposite Kharghar Railway Station, Belpada, Sector 3, Kharghar, Mumbai, Maharashtra 410210, India","[' 9321551234, 7666442227']"
55,2290,2290,Indian Statistical Institute - ISI Mumbai - Courses,Maharashtra,Mumbai,http://www.isimumbai.co.in,"Old Central Government Offices Building, 3rd Floor, Room No. 320, 101, Maharshi Karve Road, Churchgate, Mumbai, Maharashtra 400020, India","['(022) 22014588, 22004574']"
56,2346,2346,Institute for Working Professionals - IWP - Courses,Maharashtra,Mumbai,https://targetstudy.com/university/15477/sikkim-manipal-university/,"A/307, Om Rachana CHS Above Hotel Kshirsagar Sector 17, Vash, Mumbai, Maharashtra 400703, India","['(022) 41419439 / ', ' 9322140020']"
57,2359,2359,Institute of Business and Retail Management - IBRM - Courses,Maharashtra,Mumbai,,"03, Laxmi Baug Estate, First Floor, Near Appa Datar Chowk, Phadke Road, Dombivli East, Mumbai, Maharashtra 421201, India","['(0251) 6469649, 6519649 / ', ' 8828899399']"
58,2363,2363,Institute of Business Studies and Research - IBSAR - Courses,Maharashtra,Mumbai,https://targetstudy.com/university/194/university-of-mumbai/,"Dahivali, Tarfe Need, Karjat, District - Raigad, Mumbai, Maharashtra 410201, India","['(02148) 220030 / ', ' 7506436965, 9323739213']"
59,2364,2364,Institute of Computer Animation and Design - ICAD - Courses,Maharashtra,Mumbai,,"201, Sterling Ind. Estate, Near Spectra Motor Compound, Ramchander Lane Ext. Malad (W), Mumbai, Maharashtra 400064, India",['(022) 26049797']
60,2392,2392,Institute of Information Security,Maharashtra,Mumbai,http://iisecurity.in/,"5th Floor, Lotus Business Park, Veera Desai Industrial Estate, Near Barbeque Nation, Andheri (W), Mumbai, Maharashtra 400053, India","['(022) 49711576, 26392628, 26399353']"
61,2397,2397,Institute of Management and Computer Studies - IMCST - Courses,Maharashtra,Mumbai,https://targetstudy.com/university/194/university-of-mumbai/,"C-4, Wagle Industrial Estate, Near Mulund (W) Check Naka, Opposite Aplab, Mumbai, Maharashtra 400604, India","['(022) 25832452, 25834443, 25832466, 25832464 / ', ' 8454074320, 7506922323, 9029191590']"
62,2619,2619,JES College of Commerce Science and Information Technology - Courses,Maharashtra,Mumbai,https://targetstudy.com/university/194/university-of-mumbai/,"Caves Road, Arvind Gandbhir Campus, Opposite Railway Station, Jogeshwari (East), Mumbai, Maharashtra 400060, India",['(022) 28245527']
63,2622,2622,Jetking Computer Hardware and Networking Institute,Maharashtra,Mumbai,,"401, Bussa Udyog Bhavan, T. J. Road, Near Sewri Bus Terminus, Sewri (W)
, Mumbai, Maharashtra 400015, India","['(022) 24156528, 24156486']"
64,2746,2746,Kapol Vidyanidhi College of Management and Technology - Courses,Maharashtra,Mumbai,https://targetstudy.com/university/194/university-of-mumbai/,"Mahavir Nagar, Near Kamla Vihar Sports Club, Kandivali, Mumbai, Maharashtra 400067, India","['(022) 28661143, 28619654, 28614719']"
65,2751,2751,Karmaveer Bhaurao Patil College - Courses,Maharashtra,Mumbai,https://www.kbpcollegevashi.edu.in/,"Sector 15-A, Vashi, Mumbai, Maharashtra 400703, India","['(022) 27661210, 27663723']"
66,2765,2765,Karrox Centre of Technology and Management - KCTM,Maharashtra,Mumbai,,"201- A/1, 'Raheja Plaza 1, L.B.S. Marg, Ghatkopar (West), Mumbai, Maharashtra 400086, India","['(022) 42193224, 42193225 / ', ' 9321405529, 9321708080']"
67,2766,2766,Karrox College of Technology and Management - Courses,Maharashtra,Mumbai,,"First Floor, Saurabh Building Modi Industrial Estate Opposite Chirag Nagar Police Station, LBS Marg Ghatkopar, Mumbai, Maharashtra 400086, India","['(022) 66710527, 66710528 / ', ' 9321405529']"
68,2811,2811,KES Degree College of Commerce and Economics - Courses,Maharashtra,Mumbai,https://targetstudy.com/university/194/university-of-mumbai/,"S.V. Road, Khar (West), Mumbai, Maharashtra 400052, India","['(022) 6133170, 61331713']"
69,2812,2812,KES Shroff College of Arts and Commerce - Courses,Maharashtra,Mumbai,http://www.kesshroffcollege.com,"Bhulabhai Desai Road, Kandivli (West), Mumbai, Maharashtra 400067, India","['(022) 28072477, 28090185']"
70,2863,2863,KJ Somaiya College of Engineering - Courses,Maharashtra,Mumbai,https://kjsce.somaiya.edu/en,"Vidyanagar, Somaiya, Vidyavihar, Mumbai, Maharashtra 400077, India",[' 9892411604 - Admission']
71,2864,2864,KJ Somaiya College of Science and Commerce - Courses,Maharashtra,Mumbai,,"Vidya Nagar, Vidyvihar, Mumbai, Maharashtra 400077, India","['\n', ' ']"
72,2865,2865,KJ Somaiya Institute of Engineering and Information Technology - KJSIEIT - Courses,Maharashtra,Mumbai,https://targetstudy.com/university/194/university-of-mumbai/,"Somaiya Ayurvihar Complex, Eastern Express Highway, Near Everard Nagar, Sion (East), Mumbai, Maharashtra 400022, India","['(022) 24061408, 24061403']"
73,2925,2925,KPB Hinduja College of Commerce - Courses,Maharashtra,Mumbai,http://www.hindujacollege.com/,"315, New Charni Road, Charni Road East, Opera House, Girgaon, Mumbai, Maharashtra 400004, India",['(022) 40989000']
74,3052,3052,LBHSST'S Institute of Computer Application,Maharashtra,Mumbai,https://targetstudy.com/university/194/university-of-mumbai/,"S.No. 341, Government Colony, Opposite Kherwadi Police Station, Bandra (E), Mumbai, Maharashtra 400051, India",['(022) 26573181']
75,3073,3073,LJNJ Mahila Mahavidyalaya - Courses,Maharashtra,Mumbai,https://targetstudy.com/university/14974/shreemati-nathibai-damodar-thackersey-women-university-churchgate/,"Paranjape 'B' Scheme Road, Vile Parle - E, Mumbai, Maharashtra 400056, India",['(022) 26169565']
76,3074,3074,LN College - Courses,Maharashtra,Mumbai,https://targetstudy.com/university/194/university-of-mumbai/,"Near Borivali Station Platform No. 1, Plot No. 89, Near General Kariappa Bridge, Rajendra Nagar, Borivali (East), Mumbai, Maharashtra 400066, India",[' 8655022625']
77,3084,3084,Lokmanya Tilak College of Engineering - Courses,Maharashtra,Mumbai,https://www.ltce.in/,"Sector 4, Vikas Nagar, Koparkhairane, Mumbai, Maharashtra 400079, India","['(022) 27541005, 27541006']"
78,3091,3091,Lords Universal College - Courses,Maharashtra,Mumbai,https://targetstudy.com/university/194/university-of-mumbai/,"Topiwala Marg, Off Station Road, Goregaon West, Mumbai, Maharashtra 400104, India","['(022) 28791111, 28724613']"
79,3218,3218,"Maharashtra College of Arts, Science and Commerce - Courses",Maharashtra,Mumbai,http://www.maharashtracollege.org/,"246-A, Jehangir Boman Behram Marg, Bellasis Road, Mumbai, Maharashtra 400008, India","['(022) 23081664, 23081665']"
80,3221,3221,Maharashtra State Board of Technical Education - Courses,Maharashtra,Mumbai,https://msbte.org.in/,"4th Floor, Govt. Polytechnic Building, 49, Kherwadi, Bandra (E), Mumbai, Maharashtra 400051, India",['(022) 62542100']
81,3257,3257,Mahatma Gandhi Mission's College of Engineering and Technology - Courses,Maharashtra,Mumbai,http://www.mgmmumbai.ac.in/,"At Junction of NH-4, & Sion-Panvel Express Highway, Kamothe Navi Mumbai, Mumbai, Maharashtra 410209, India","['(022) 27433403, 65138119']"
82,3476,3476,MET Institute of Computer Science,Maharashtra,Mumbai,http://www.met.edu/Institutes/ICS/index_ics.asp,"Bhujbal Knowledge Centre, Bandra Reclamation, Bandra (West), Mumbai, Maharashtra 400050, India","['(022) 26440446, 26440096']"
83,3478,3478,MET Institute of Information Technology,Maharashtra,Mumbai,http://www.met.edu/Institutes/IIT/index_iit.asp,"Bhujbal Knowledge City, Reclamation, Bandra West, Mumbai, Maharashtra 400050, India","['(022) 26440096, 26440057, Toll Free No. 1800 22 0234']"
84,3479,3479,MET Institute of Software Development and Research,Maharashtra,Mumbai,http://www.met.edu/Institutes/isdr/index_isdr.asp,"Bhujbal Knowledge Centre, Bandra Reclamation, Bandra (W), Mumbai, Maharashtra 400050, India","['(022) 26440096, 26440057, Toll Free No. 1800 22 0234']"
85,3599,3599,"MPSP Singh College of Arts, Science and Commerce - Courses",Maharashtra,Mumbai,https://targetstudy.com/university/194/university-of-mumbai/,"Plot No. 629/1243, Sharada Devi Road, Behind Teache' s Colony, Siddharth Nagar, Bandra East, Mumbai, Maharashtra 400051, India",['(022) 26571087']
86,3618,3618,Mukesh Patel School of Technology Management and Engineering - MPSTME - Courses,Maharashtra,Mumbai,http://engineering.nmims.edu/,"Bhakti Vedant Swami Marg, Near Cooper Hospital, JVPD Scheme, Vile Parle (West), Mumbai, Maharashtra 400056, India",['(022) 42334000']
87,3623,3623,Mulund College of Commerce (Autonomous) - Courses,Maharashtra,Mumbai,https://targetstudy.com/university/194/university-of-mumbai/,"Sarojini Naidu Road, Near Court, Mulund West, Mumbai, Maharashtra 400080, India","['(022) 25600017 / ', ' 8097345311, 8097876255, 9082101135, 9082164576']"
88,3649,3649,N.R. Swamy College of Commerce and Smt. Thirumalai College of Science - Courses,Maharashtra,Mumbai,https://siwscollege.edu.in/,"Plot No. 337, Major R. Parameshwaran Road, Sewree Wadala Estate, Mumbai, Maharashtra 400031, India","['(022) 24180390 / ', ' 8591113272']"
89,3663,3663,Nagindas Khandwala College - Courses,Maharashtra,Mumbai,http://www.nkc.ac.in/,"Road No. 1, Bhavishya Bharat Campus, Bhadran Nagar, Off SV Road, Mumbai, Maharashtra 400064, India","['(022) 28072262, 28085424, 28086427']"
90,3699,3699,Narsee Monjee College of Commerce and Economics - Courses,Maharashtra,Mumbai,https://targetstudy.com/university/194/university-of-mumbai/,"Swami Bhaktivedant Marg, Bhagubai Mafatlal Complex, Opposite Cooper Hospital, Vile Parle West, Mumbai, Maharashtra 400056, India","['(022) 2338000, 42338001']"
91,3707,3707,National Academy of Management Studies - NAMS - Courses,Maharashtra,Mumbai,http://www.nams.org.in/,"B-65, Flat No. 201, Sector No. 1, Shanti Nagar, Opposite MBMT Bus Stand, Near Railway Station, Mira Road (E), Mumbai, Maharashtra 401107, India",[' 9222210068']
92,3715,3715,National Institute of Computer Arts - NICA - Courses,Maharashtra,Mumbai,http://www.nicainstitute.com,"35-3rd Floor, Bismilla Building, Opposite Suvidha Family Store, Nears Dadar Station (West), Ranade Road, Dadar (W), Mumbai, Maharashtra 400028, India","[' 8080806699, 9022349032']"
93,3757,3757,Navinchandra Mehta Institute of Technology and Development - NMITD - Courses,Maharashtra,Mumbai,https://targetstudy.com/university/194/university-of-mumbai/,"DES's Mumbai Campus, Kirti College Road, off- Veer Sawarkar Marg, Mumbai, Maharashtra 400028, India","['(022) 62764582, 62764583, 62764588 / ', ' 9819682436, 8108365636']"
94,3799,3799,Netizen Computer Education,Maharashtra,Mumbai,,"B-25/198 Anand Nagar, Santacruz, (East), Mumbai, Maharashtra 400055, India",['(022) 26686868']
95,3816,3816,NG Acharya and DK Marathe College of Arts Science and Commerce - Courses,Maharashtra,Mumbai,http://www.acharyamarathecollege.in/,"N.G. Acharya Marg, Chembur, Near Shubhash Marg, Mumbai, Maharashtra 400071, India","['(022) 25218797, 25217344']"
96,3824,3824,NIDT Institute for Animation and Visual FX - Andheri (West),Maharashtra,Mumbai,,"First Floor, Best Complex, Opposite Andheri Railway Station, Andheri (West), Mumbai, Maharashtra 400058, India","[' 9987993417, 9323909966']"
97,3825,3825,NIDT Institute for Animation and Visual FX - Borivali (East),Maharashtra,Mumbai,,"111-C, Azanta Square, Behind Borivali Court, Bhaji Market Lane, Borivali West, Mumbai, Maharashtra 400092, India",[' 9987993417']
98,3826,3826,NIDT Institute for Animation and Visual FX - Thane (West) - Courses,Maharashtra,Mumbai,,"701, 7th Floor, Paradise Tower, Next to MC Donalds, Gokhale Road, Thane (West), Mumbai, Maharashtra 400601, India",[' 9987993417']
99,3854,3854,Nirmala Memorial Foundation College of Commerce and Science - Courses,Maharashtra,Mumbai,https://targetstudy.com/university/194/university-of-mumbai/,"D.S. Road, Thakur Complex, Kandivali East, Mumbai, Maharashtra 400101, India",['(022) 69436400']
100,3935,3935,Oriental College of Commerce and Management - OCCM - Courses,Maharashtra,Mumbai,https://targetstudy.com/university/194/university-of-mumbai/,"Oriental Building, Adarsh Nagar, New Link Road, Andheri(W), Mumbai, Maharashtra 400102, India","['(022) 66914405, 66914406']"
101,3982,3982,Padmabhushan Vasantdada Patil Pratishthan's College of Engineering & Visual Art - Courses,Maharashtra,Mumbai,https://targetstudy.com/university/194/university-of-mumbai/,"Eastern Express Highway, Near Everard Nagar, Sion - Chunabatti, Mumbai, Maharashtra 400022, India","['(022) 20847226, 20847229, 20847228']"
102,3995,3995,Palindia Computer Education - Courses,Maharashtra,Mumbai,http://www.palindia.in/,"208, A-West Wing, Shyamkamal Building, Opposite Railway Station, Near Dinanath Natyagruh, Mumbai, Maharashtra 400057, India","['(022) 24155976, Toll Free No. 18002666680 / ', ' 9820096295']"
103,4086,4086,Pillai Centre for Cyber Security and Digital Forensics,Maharashtra,Mumbai,https://targetstudy.com/university/194/university-of-mumbai/,"L-001, Ground Floor Dr. K.M. Vasudevan Pillai's Campus Sector 16, New Panvel, Mumbai, Maharashtra 410206, India","['(022) 27456030, 27451700, 27456100 / ', ' 9819110096, 9867099662, 9833202604, 9702043344']"
104,4087,4087,"Pillai College of Arts, Commerce and Science (Autonomous) - Courses",Maharashtra,Mumbai,http://www.pcacs.ac.in,"Dr. K.M. Vasudevan Pillai's Campus, Plot No. 10, Sector 16, New Panvel, Mumbai, Maharashtra 410206, India","['(022) 27451700, 27456100, 27481764, 27456030']"
105,4088,4088,Pillai College of Engineering (PCE) (Autonomous) - Courses,Maharashtra,Mumbai,http://www.piit.ac.in/,"Dr. K.M. Vasudevan Pillai Campus Plot No. 10, Sector 16, New Panve, Mumbai, Maharashtra 410206, India","['(022) 27456030, 27451700, 27456100, 27481764']"
106,4140,4140,Prahladrai Dalmia Lions College of Commerce and Economics - Courses,Maharashtra,Mumbai,http://www.dalmialionscollege.ac.in/,"Sunder Nagar, S.V. Road, Malad - West, Mumbai, Maharashtra 400064, India","['(022) 35112985, 35115316, 35115003']"
107,4217,4217,Public Night Degree College - Courses,Maharashtra,Mumbai,http://publicinstitutes.org/,"Shikshalay, Hind Nagar, Vakola Market, Aaram Society Road, Santacruz (East), Mumbai, Maharashtra 400055, India","['(022) 26672360 / ', ' 9821956644']"
108,4247,4247,Quant Master Academy,Maharashtra,Mumbai,,"207, 2nd Floor, Abhishek Commercial Complex, S.V. Road, Above Dena Bank, Malad (West), Mumbai, Maharashtra 400064, India",[' 8082556605']
109,4288,4288,Raigad Education and Research Center - Courses,Maharashtra,Mumbai,,"C-467, Vashi Plaza, Sector 17, Vashi, Navi Mumbai, Mumbai, Maharashtra 400703, India",[' 9323859935']
110,4348,4348,Rajiv Gandhi Institute of Technology - Courses,Maharashtra,Mumbai,http://mctrgit.ac.in,"Juhu Versova Link Road, Behind HDFC Bank Versova, Andheri (West), Mumbai, Maharashtra 400053, India","['(022) 26707026, 26707027']"
111,4373,4373,Ramanand Arya DAV College - Courses,Maharashtra,Mumbai,https://targetstudy.com/university/194/university-of-mumbai/,"Station Road, Bhandup, C.G.S. Colony, Bhandup East, Mumbai, Maharashtra 400042, India",['(022) 25662921']
112,4760,4760,Sarada Kurup College of Science and Commerce - Courses,Maharashtra,Mumbai,https://targetstudy.com/university/194/university-of-mumbai/,"Plot No. 31, Sector 25, Next to Seawoods Railway Station, Nerul, Navi Mumbai, Mumbai, Maharashtra , India",['(022) 27711481']
113,4770,4770,Saraswati College of Engineering - Courses,Maharashtra,Mumbai,http://engineering.saraswatikharghar.edu.in/,"Plot No. 46, Sector 5, Near MSEB Sub Station, Kharghar, Mumbai, Maharashtra 410210, India","['(022) 27743703 / ', ' 9320299474, 9320299475']"
114,4818,4818,"Satyagraha College of Commerce, Management, Science and Information Technology - Courses",Maharashtra,Mumbai,,"Supparak Bhavan, Plot No. 52, Sector 19, Navi Mumbai, Mumbai, Maharashtra 400210, India","[' 9870105027, 9769449192, 9821304515']"
115,4844,4844,School of Data Science and Business Intelligence - SDBI - Courses,Maharashtra,Mumbai,https://targetstudy.com/university/194/university-of-mumbai/,"Patkar College, Piramal Nagar, Goregaon West, Mumbai, Maharashtra 400062, India","[' 9920053700, 9372777617']"
116,4910,4910,Shah and Anchor Kutchhi Engineering College - SAKEC - Courses,Maharashtra,Mumbai,http://www.shahandanchor.com/2014/home/,"W.T. Patil Marg, Next to Dukes Company,
Chembur, Mumbai, Maharashtra 400088, India",['(022) 25580854']
117,4930,4930,Shankar Narayan College of Arts and Commerce - Courses,Maharashtra,Mumbai,http://sncollege.com/,"Mahavidyalaya Marg, Navghar Gaon, Bhayandar East, Thane, Mumbai, Maharashtra 401105, India","['(022) 28046564, 28048235, 28152348']"
118,4970,4970,Sheth LUJ College of Arts and Sir MV College of Science and Commerce - Courses,Maharashtra,Mumbai,http://www.mvlucollege.in/,"Dr. S. Radhakrisnan Marg, Andheri East, Mumbai, Maharashtra 400069, India","['(022) 66992022, 66992023']"
119,5020,5020,Shree Krishna Academy - Courses,Maharashtra,Mumbai,,"Room No. 306, 3rd Floor, Cross Bhawani Shankar Road, Opposite Deaware Tower, Near Kabutar Khana, Dadar West
, Mumbai, Maharashtra 400028, India",[' 9892455529']
120,5069,5069,Shri GPM Degree College - Courses,Maharashtra,Mumbai,https://targetstudy.com/university/194/university-of-mumbai/,"Mahatma Gandhi Road, Vile Parle East, Mumbai, Maharashtra 400057, India","['(022) 26122586, 26122587']"
121,5070,5070,Shri GPM Degree College of Science and Commerce,Maharashtra,Mumbai,,"Rajarshi Sahu Maharaj Road, Telli Galli, Andheri (E), Mumbai, Maharashtra 400069, India","['(022) 26840822, 26833455 / ', ' 9224401657']"
122,5071,5071,Shri GPM Institute of Technology - Courses,Maharashtra,Mumbai,https://targetstudy.com/university/196/yashwantrao-chavan-maharashtra-open-university/,"Rajarshi Shahu Maharaj Road, Andheri East, Mumbai, Maharashtra 400069, India","['(022) 26840822, 26833455']"
123,5153,5153,Shri. M.D. Shah Mahila College of Arts and Commerce - Courses,Maharashtra,Mumbai,https://targetstudy.com/university/14974/shreemati-nathibai-damodar-thackersey-women-university-churchgate/,"B.J. Patel Road, Near Liberty Garden, Malad (West), Mumbai, Maharashtra 400064, India",['(022) 61319000']
124,5188,5188,"SIES College of Arts, Science and Commerce - Nerul - Courses",Maharashtra,Mumbai,http://www.siesascn.edu.in/,"Sri Chandrasekarendra Saraswati Vidyapuram, Plot I-C, Sector V, Nerul, Mumbai, Maharashtra 400706, India","['(022) 61196409, 61196410, 61196414, 61196415']"
125,5189,5189,SIES College of Commerce and Economics - Courses,Maharashtra,Mumbai,http://www.siesce.edu.in/,"Plot No. 71, 72, TV Chidambaran Marg, Air Force Quarters, Sion, Near Champaklal Industries, Mumbai, Maharashtra 400022, India",['(022) 24074944']
126,5190,5190,SIES Graduate School of Technology - Courses,Maharashtra,Mumbai,http://www.siesgst.edu.in/,"Sri Chandrasekarendra Saraswati Vidyapuram, Sector  V, Nerul, Mumbai, Maharashtra 400706, India","['(022) 61082402, 61082417, 61082418, 61082419']"
127,5239,5239,Sir Sitaram and Lady Shantabai Patkar College of Arts and Science - Courses,Maharashtra,Mumbai,https://targetstudy.com/university/194/university-of-mumbai/,"S.V. Road, Goregaon (West), Mumbai, Maharashtra 400062, India","['(022) 28723731, 28721875']"
128,5283,5283,Smt. Kamaladevi Gauridutt Mittal College of Arts and Commerce - Courses,Maharashtra,Mumbai,https://targetstudy.com/university/194/university-of-mumbai/,"Nahar Nagar, off Liberty Garden, Malad (W), Mumbai, Maharashtra 400064, India","[' 9136168847, 7718089066']"
129,5337,5337,SPN Doshi Women's College - Courses,Maharashtra,Mumbai,http://spndoshicollege.com/,"Jag Dhir Boda Vidya Sankul, Cama Lane, Ghatkopar, Mumbai, Maharashtra 400086, India",['(022) 25135439']
130,5357,5357,Sree Narayana Guru College of Commerce - Courses,Maharashtra,Mumbai,https://targetstudy.com/university/194/university-of-mumbai/,"P.L. Lokhande Marg, Chembur (West), Mumbai, Maharashtra 400089, India","['(022) 25263132, 25263123']"
131,5593,5593,"St. Andrew's College of Arts, Science and Commerce - Courses",Maharashtra,Mumbai,https://targetstudy.com/university/194/university-of-mumbai/,"St. Dominic Road, Bandra (West), Mumbai, Maharashtra 400050, India","['\n', ' ']"
132,5607,5607,St. Francis Institute of Technology - Courses,Maharashtra,Mumbai,https://www.sfit.ac.in/,"Mount Poinsur, S.V.P. Road, Borivli (West), Mumbai, Maharashtra 400103, India","['(022) 28928585 / ', ' 9167370622, 9167370632, 9167370637']"
133,5667,5667,St. Xavier's College Mumbai (Autonomous) - Courses,Maharashtra,Mumbai,https://targetstudy.com/university/194/university-of-mumbai/,"5, Mahapalika Marg, Mumbai, Maharashtra 400001, India",['(022) 22620661']
134,5682,5682,Sterling Institute of Management Studies - NCRD - Courses,Maharashtra,Mumbai,http://www.ncrdsims.edu.in/,"Plot No. 93, Sector 19, Near Sea-Woods Railway Station, Nerul (E), Mumbai, Maharashtra 400706, India","['(022) 27702282, 27722290, 27715308 / ', ' 7021568591, 9821469750']"
135,5739,5739,SVKM's Dwarkadas J.Sanghvi College of Engineering - Courses,Maharashtra,Mumbai,https://targetstudy.com/university/194/university-of-mumbai/,"Plot No. U-15, J.V.P.D. Scheme, Bhaktivedanta Swami Marg, Vile Parle, Mumbai, Maharashtra 400056, India","['(022) 42335000, 42335001']"
136,5881,5881,Terna Engineering College - Courses,Maharashtra,Mumbai,https://ternaengg.ac.in/,"Plot No. 12, Sector 22, Opposite Nerul Railway Station, Phase II, Nerul (W), Mumbai, Maharashtra 400706, India","['(022) 61115444 (30 Line) / ', ' 7406515444']"
137,5885,5885,Thadomal Shahani Engineering College - Courses,Maharashtra,Mumbai,https://targetstudy.com/university/194/university-of-mumbai/,"Advocate Nari Gursahani Marg, 37th Road,(Off Linking Road), TPS III, Bandra (west), Mumbai, Maharashtra 400050, India","['(022) 26495808 / ', ' 9594696888']"
138,5886,5886,Thakur College of Engineering and Technology - Courses,Maharashtra,Mumbai,http://www.tcetmumbai.in/,"A-Block, Thakur Educational Campus, Shyamnarayan Thakur Marg, Thakur Village, Kandivali(E), Mumbai, Maharashtra 400101, India","['(022) 28461891, 67308000, 67308106, 67308107']"
139,5887,5887,Thakur Institute of Career Advancement - TICA - Courses,Maharashtra,Mumbai,http://www.ticamumbai.in/,"First Floor, Thakur engineering Building, 90 ft Road, Off W.E Highway, Thakur Complex, Kandivali (E), Mumbai, Maharashtra 400101, India","['(022) 67308113, 67308277, 67308106, 67308107 / ', ' 9867302051']"
140,5888,5888,"Thakur Institute of Management Studies, Career Development and Research - TIMSCDR - Courses",Maharashtra,Mumbai,https://www.timscdrmumbai.in/,"Thakur Educational Campus, Shyamnarayan Thakur Marg, Thakur Village, Kandivli (E), Mumbai, Maharashtra 400101, India","['(022) 28840484, 288408491, 67308301, 67308302']"
141,5892,5892,Thakur Ramnarayan College of Arts and Commerce - TRCAC - Courses,Maharashtra,Mumbai,http://trcac.org.in/contactus.php,"Thakur Ramnarayan Educational Campus, S.V. Road, Dahisar (East), Mumbai, Maharashtra 400068, India","['(022) 28281200 / ', ' 9029026799']"
142,5964,5964,Tilak College of Science and Commerce - Courses,Maharashtra,Mumbai,https://targetstudy.com/university/194/university-of-mumbai/,"Plot No. 131, Sector 28, Vashi, Mumbai, Maharashtra 400705, India",['(022) 27655267']
143,5982,5982,Tolani College of Commerce - TCC - Courses,Maharashtra,Mumbai,https://targetstudy.com/university/194/university-of-mumbai/,"150-151, Sher-E-Punjab Society, Guru Gobind Singh Road, Off Mahakali Caves Road, Andheri-East, Mumbai, Maharashtra 400093, India","['(022) 61535455, 61535410 (Principal)']"
